[
    {"areaName":"北海道 宗谷地方","placeName":"宗谷岬（ソウヤミサキ）"},
    {"areaName":"北海道 宗谷地方","placeName":"稚内（ワッカナイ）"},
    {"areaName":"北海道 宗谷地方","placeName":"礼文（レブン）"},
    {"areaName":"北海道 宗谷地方","placeName":"声問（コエトイ）"},
    {"areaName":"北海道 宗谷地方","placeName":"浜鬼志別（ハマオニシベツ）"},
    {"areaName":"北海道 宗谷地方","placeName":"本泊（モトドマリ）"},
    {"areaName":"北海道 宗谷地方","placeName":"沼川（ヌマカワ）"},
    {"areaName":"北海道 宗谷地方","placeName":"沓形（クツガタ）"},
    {"areaName":"北海道 宗谷地方","placeName":"豊富（トヨトミ）"},
    {"areaName":"北海道 宗谷地方","placeName":"浜頓別（ハマトンベツ）"},
    {"areaName":"北海道 宗谷地方","placeName":"中頓別（ナカトンベツ）"},
    {"areaName":"北海道 宗谷地方","placeName":"北見枝幸（キタミエサシ）"},
    {"areaName":"北海道 宗谷地方","placeName":"歌登（ウタノボリ）"},
    {"areaName":"北海道 宗谷地方","placeName":"幌延（ホロノベ）"},
    {"areaName":"北海道 上川地方","placeName":"中川（ナカガワ）"},
    {"areaName":"北海道 上川地方","placeName":"音威子府（オトイネップ）"},
    {"areaName":"北海道 上川地方","placeName":"小車（オグルマ）"},
    {"areaName":"北海道 上川地方","placeName":"美深（ビフカ）"},
    {"areaName":"北海道 上川地方","placeName":"名寄（ナヨロ）"},
    {"areaName":"北海道 上川地方","placeName":"西風連（ニシフウレン）"},
    {"areaName":"北海道 上川地方","placeName":"下川（シモカワ）"},
    {"areaName":"北海道 上川地方","placeName":"剣淵（ケンブチ）"},
    {"areaName":"北海道 上川地方","placeName":"士別（シベツ）"},
    {"areaName":"北海道 上川地方","placeName":"朝日（アサヒ）"},
    {"areaName":"北海道 上川地方","placeName":"和寒（ワッサム）"},
    {"areaName":"北海道 上川地方","placeName":"江丹別（エタンベツ）"},
    {"areaName":"北海道 上川地方","placeName":"比布（ピップ）"},
    {"areaName":"北海道 上川地方","placeName":"上川（カミカワ）"},
    {"areaName":"北海道 上川地方","placeName":"旭川（アサヒカワ）"},
    {"areaName":"北海道 上川地方","placeName":"東川（ヒガシカワ）"},
    {"areaName":"北海道 上川地方","placeName":"瑞穂（ミズホ）"},
    {"areaName":"北海道 上川地方","placeName":"層雲峡（ソウウンキョウ）"},
    {"areaName":"北海道 上川地方","placeName":"東神楽（ヒガシカグラ）"},
    {"areaName":"北海道 上川地方","placeName":"志比内（シビナイ）"},
    {"areaName":"北海道 上川地方","placeName":"美瑛（ビエイ）"},
    {"areaName":"北海道 上川地方","placeName":"上富良野（カミフラノ）"},
    {"areaName":"北海道 上川地方","placeName":"白金（シロガネ）"},
    {"areaName":"北海道 上川地方","placeName":"富良野（フラノ）"},
    {"areaName":"北海道 上川地方","placeName":"麓郷（ロクゴウ）"},
    {"areaName":"北海道 上川地方","placeName":"金山（カナヤマ）"},
    {"areaName":"北海道 上川地方","placeName":"幾寅（イクトラ）"},
    {"areaName":"北海道 上川地方","placeName":"占冠（シムカップ）"},
    {"areaName":"北海道 上川地方","placeName":"朱鞠内（シュマリナイ）"},
    {"areaName":"北海道 上川地方","placeName":"幌加内（ホロカナイ）"},
    {"areaName":"北海道 留萌地方","placeName":"天塩（テシオ）"},
    {"areaName":"北海道 留萌地方","placeName":"遠別（エンベツ）"},
    {"areaName":"北海道 留萌地方","placeName":"初山別（ショサンベツ）"},
    {"areaName":"北海道 留萌地方","placeName":"焼尻（ヤギシリ）"},
    {"areaName":"北海道 留萌地方","placeName":"羽幌（ハボロ）"},
    {"areaName":"北海道 留萌地方","placeName":"古丹別（コタンベツ）"},
    {"areaName":"北海道 留萌地方","placeName":"達布（タップ）"},
    {"areaName":"北海道 留萌地方","placeName":"留萌（ルモイ）"},
    {"areaName":"北海道 留萌地方","placeName":"増毛（マシケ）"},
    {"areaName":"北海道 留萌地方","placeName":"幌糠（ホロヌカ）"},
    {"areaName":"北海道 石狩地方","placeName":"浜益（ハママス）"},
    {"areaName":"北海道 石狩地方","placeName":"厚田（アツタ）"},
    {"areaName":"北海道 石狩地方","placeName":"新篠津（シンシノツ）"},
    {"areaName":"北海道 石狩地方","placeName":"山口（ヤマグチ）"},
    {"areaName":"北海道 石狩地方","placeName":"石狩（イシカリ）"},
    {"areaName":"北海道 石狩地方","placeName":"江別（エベツ）"},
    {"areaName":"北海道 石狩地方","placeName":"手稲山（テイネヤマ）"},
    {"areaName":"北海道 石狩地方","placeName":"札幌（サッポロ）"},
    {"areaName":"北海道 石狩地方","placeName":"小金湯（コガネユ）"},
    {"areaName":"北海道 石狩地方","placeName":"恵庭島松（エニワシママツ）"},
    {"areaName":"北海道 石狩地方","placeName":"支笏湖畔（シコツコハン）"},
    {"areaName":"北海道 石狩地方","placeName":"千歳（チトセ）"},
    {"areaName":"北海道 空知地方","placeName":"石狩沼田（イシカリヌマタ）"},
    {"areaName":"北海道 空知地方","placeName":"深川（フカガワ）"},
    {"areaName":"北海道 空知地方","placeName":"雨竜（ウリュウ）"},
    {"areaName":"北海道 空知地方","placeName":"新城（シンジョウ）"},
    {"areaName":"北海道 空知地方","placeName":"空知吉野（ソラチヨシノ）"},
    {"areaName":"北海道 空知地方","placeName":"滝川（タキカワ）"},
    {"areaName":"北海道 空知地方","placeName":"赤平（アカビラ）"},
    {"areaName":"北海道 空知地方","placeName":"芦別（アシベツ）"},
    {"areaName":"北海道 空知地方","placeName":"浦臼（ウラウス）"},
    {"areaName":"北海道 空知地方","placeName":"月形（ツキガタ）"},
    {"areaName":"北海道 空知地方","placeName":"美唄（ビバイ）"},
    {"areaName":"北海道 空知地方","placeName":"岩見沢（イワミザワ）"},
    {"areaName":"北海道 空知地方","placeName":"栗沢（クリサワ）"},
    {"areaName":"北海道 空知地方","placeName":"長沼（ナガヌマ）"},
    {"areaName":"北海道 空知地方","placeName":"夕張（ユウバリ）"},
    {"areaName":"北海道 空知地方","placeName":"鹿島（カシマ）"},
    {"areaName":"北海道 空知地方","placeName":"沼の沢（ヌマノサワ）"},
    {"areaName":"北海道 後志地方","placeName":"美国（ビクニ）"},
    {"areaName":"北海道 後志地方","placeName":"神恵内（カモエナイ）"},
    {"areaName":"北海道 後志地方","placeName":"余市（ヨイチ）"},
    {"areaName":"北海道 後志地方","placeName":"小樽（オタル）"},
    {"areaName":"北海道 後志地方","placeName":"赤井川（アカイガワ）"},
    {"areaName":"北海道 後志地方","placeName":"共和（キョウワ）"},
    {"areaName":"北海道 後志地方","placeName":"蘭越（ランコシ）"},
    {"areaName":"北海道 後志地方","placeName":"倶知安（クッチャン）"},
    {"areaName":"北海道 後志地方","placeName":"寿都（スッツ）"},
    {"areaName":"北海道 後志地方","placeName":"ニセコ（ニセコ）"},
    {"areaName":"北海道 後志地方","placeName":"真狩（マッカリ）"},
    {"areaName":"北海道 後志地方","placeName":"喜茂別（キモベツ）"},
    {"areaName":"北海道 後志地方","placeName":"黒松内（クロマツナイ）"},
    {"areaName":"北海道 網走・北見・紋別地方","placeName":"雄武（オウム）"},
    {"areaName":"北海道 網走・北見・紋別地方","placeName":"興部（オコッペ）"},
    {"areaName":"北海道 網走・北見・紋別地方","placeName":"西興部（ニシオコッペ）"},
    {"areaName":"北海道 網走・北見・紋別地方","placeName":"紋別（モンベツ）"},
    {"areaName":"北海道 網走・北見・紋別地方","placeName":"紋別小向（モンベツコムカイ）"},
    {"areaName":"北海道 網走・北見・紋別地方","placeName":"湧別（ユウベツ）"},
    {"areaName":"北海道 網走・北見・紋別地方","placeName":"滝上（タキノウエ）"},
    {"areaName":"北海道 網走・北見・紋別地方","placeName":"上藻別（カミモベツ）"},
    {"areaName":"北海道 網走・北見・紋別地方","placeName":"常呂（トコロ）"},
    {"areaName":"北海道 網走・北見・紋別地方","placeName":"遠軽（エンガル）"},
    {"areaName":"北海道 網走・北見・紋別地方","placeName":"佐呂間（サロマ）"},
    {"areaName":"北海道 網走・北見・紋別地方","placeName":"網走（アバシリ）"},
    {"areaName":"北海道 網走・北見・紋別地方","placeName":"宇登呂（ウトロ）"},
    {"areaName":"北海道 網走・北見・紋別地方","placeName":"丸瀬布（マルセップ）"},
    {"areaName":"北海道 網走・北見・紋別地方","placeName":"白滝（シラタキ）"},
    {"areaName":"北海道 網走・北見・紋別地方","placeName":"生田原（イクタハラ）"},
    {"areaName":"北海道 網走・北見・紋別地方","placeName":"仁頃山（ニコロヤマ）"},
    {"areaName":"北海道 網走・北見・紋別地方","placeName":"北見（キタミ）"},
    {"areaName":"北海道 網走・北見・紋別地方","placeName":"女満別（メマンベツ）"},
    {"areaName":"北海道 網走・北見・紋別地方","placeName":"東藻琴（ヒガシモコト）"},
    {"areaName":"北海道 網走・北見・紋別地方","placeName":"小清水（コシミズ）"},
    {"areaName":"北海道 網走・北見・紋別地方","placeName":"斜里（シャリ）"},
    {"areaName":"北海道 網走・北見・紋別地方","placeName":"留辺蘂（ルベシベ）"},
    {"areaName":"北海道 網走・北見・紋別地方","placeName":"境野（サカイノ）"},
    {"areaName":"北海道 網走・北見・紋別地方","placeName":"美幌（ビホロ）"},
    {"areaName":"北海道 網走・北見・紋別地方","placeName":"山園（ヤマゾノ）"},
    {"areaName":"北海道 網走・北見・紋別地方","placeName":"置戸常元（オケトツネモト）"},
    {"areaName":"北海道 網走・北見・紋別地方","placeName":"津別（ツベツ）"},
    {"areaName":"北海道 網走・北見・紋別地方","placeName":"津別二又（ツベツフタマタ）"},
    {"areaName":"北海道 根室地方","placeName":"羅臼（ラウス）"},
    {"areaName":"北海道 根室地方","placeName":"糸櫛別（イトクシベツ）"},
    {"areaName":"北海道 根室地方","placeName":"標津（シベツ）"},
    {"areaName":"北海道 根室地方","placeName":"上標津（カミシベツ）"},
    {"areaName":"北海道 根室地方","placeName":"中標津（ナカシベツ）"},
    {"areaName":"北海道 根室地方","placeName":"根室中標津（ネムロナカシベツ）"},
    {"areaName":"北海道 根室地方","placeName":"別海（ベツカイ）"},
    {"areaName":"北海道 根室地方","placeName":"根室（ネムロ）"},
    {"areaName":"北海道 根室地方","placeName":"納沙布（ノサップ）"},
    {"areaName":"北海道 根室地方","placeName":"厚床（アットコ）"},
    {"areaName":"北海道 釧路地方","placeName":"川湯（カワユ）"},
    {"areaName":"北海道 釧路地方","placeName":"弟子屈（テシカガ）"},
    {"areaName":"北海道 釧路地方","placeName":"阿寒湖畔（アカンコハン）"},
    {"areaName":"北海道 釧路地方","placeName":"標茶（シベチャ）"},
    {"areaName":"北海道 釧路地方","placeName":"鶴居（ツルイ）"},
    {"areaName":"北海道 釧路地方","placeName":"中徹別（ナカテシベツ）"},
    {"areaName":"北海道 釧路地方","placeName":"塘路（トウロ）"},
    {"areaName":"北海道 釧路地方","placeName":"茶内原野（チャナイゲンヤ）"},
    {"areaName":"北海道 釧路地方","placeName":"榊町（サカキマチ）"},
    {"areaName":"北海道 釧路地方","placeName":"阿寒（アカン）"},
    {"areaName":"北海道 釧路地方","placeName":"鶴丘（ツルオカ）"},
    {"areaName":"北海道 釧路地方","placeName":"太田（オオタ）"},
    {"areaName":"北海道 釧路地方","placeName":"二俣（フタマタ）"},
    {"areaName":"北海道 釧路地方","placeName":"白糠（シラヌカ）"},
    {"areaName":"北海道 釧路地方","placeName":"釧路（クシロ）"},
    {"areaName":"北海道 釧路地方","placeName":"知方学（チッポマナイ）"},
    {"areaName":"北海道 十勝地方","placeName":"三股（ミツマタ）"},
    {"areaName":"北海道 十勝地方","placeName":"小利別（ショウトシベツ）"},
    {"areaName":"北海道 十勝地方","placeName":"陸別（リクベツ）"},
    {"areaName":"北海道 十勝地方","placeName":"ぬかびら源泉郷（ヌカビラゲンセンキョウ）"},
    {"areaName":"北海道 十勝地方","placeName":"柏倉（カシワクラ）"},
    {"areaName":"北海道 十勝地方","placeName":"上螺湾（カミラワン）"},
    {"areaName":"北海道 十勝地方","placeName":"上士幌（カミシホロ）"},
    {"areaName":"北海道 十勝地方","placeName":"足寄（アショロ）"},
    {"areaName":"北海道 十勝地方","placeName":"押帯（オショップ）"},
    {"areaName":"北海道 十勝地方","placeName":"本別（ホンベツ）"},
    {"areaName":"北海道 十勝地方","placeName":"新得（シントク）"},
    {"areaName":"北海道 十勝地方","placeName":"鹿追（シカオイ）"},
    {"areaName":"北海道 十勝地方","placeName":"駒場（コマバ）"},
    {"areaName":"北海道 十勝地方","placeName":"芽室（メムロ）"},
    {"areaName":"北海道 十勝地方","placeName":"帯広（オビヒロ）"},
    {"areaName":"北海道 十勝地方","placeName":"池田（イケダ）"},
    {"areaName":"北海道 十勝地方","placeName":"留真（ルシン）"},
    {"areaName":"北海道 十勝地方","placeName":"浦幌（ウラホロ）"},
    {"areaName":"北海道 十勝地方","placeName":"帯広泉（オビヒロイズミ）"},
    {"areaName":"北海道 十勝地方","placeName":"糠内（ヌカナイ）"},
    {"areaName":"北海道 十勝地方","placeName":"上札内（カミサツナイ）"},
    {"areaName":"北海道 十勝地方","placeName":"更別（サラベツ）"},
    {"areaName":"北海道 十勝地方","placeName":"大津（オオツ）"},
    {"areaName":"北海道 十勝地方","placeName":"大樹（タイキ）"},
    {"areaName":"北海道 十勝地方","placeName":"広尾（ヒロオ）"},
    {"areaName":"北海道 胆振地方","placeName":"安平（アビラ）"},
    {"areaName":"北海道 胆振地方","placeName":"厚真（アツマ）"},
    {"areaName":"北海道 胆振地方","placeName":"穂別（ホベツ）"},
    {"areaName":"北海道 胆振地方","placeName":"大滝（オオタキ）"},
    {"areaName":"北海道 胆振地方","placeName":"森野（モリノ）"},
    {"areaName":"北海道 胆振地方","placeName":"苫小牧（トマコマイ）"},
    {"areaName":"北海道 胆振地方","placeName":"大岸（オオキシ）"},
    {"areaName":"北海道 胆振地方","placeName":"洞爺湖温泉（トウヤコオンセン）"},
    {"areaName":"北海道 胆振地方","placeName":"カルルス（カルルス）"},
    {"areaName":"北海道 胆振地方","placeName":"白老（シラオイ）"},
    {"areaName":"北海道 胆振地方","placeName":"鵡川（ムカワ）"},
    {"areaName":"北海道 胆振地方","placeName":"伊達（ダテ）"},
    {"areaName":"北海道 胆振地方","placeName":"登別（ノボリベツ）"},
    {"areaName":"北海道 胆振地方","placeName":"室蘭（ムロラン）"},
    {"areaName":"北海道 日高地方","placeName":"日高（ヒダカ）"},
    {"areaName":"北海道 日高地方","placeName":"仁世宇（ニセウ）"},
    {"areaName":"北海道 日高地方","placeName":"旭（アサヒ）"},
    {"areaName":"北海道 日高地方","placeName":"日高門別（ヒダカモンベツ）"},
    {"areaName":"北海道 日高地方","placeName":"新和（シンワ）"},
    {"areaName":"北海道 日高地方","placeName":"笹山（ササヤマ）"},
    {"areaName":"北海道 日高地方","placeName":"静内（シズナイ）"},
    {"areaName":"北海道 日高地方","placeName":"三石（ミツイシ）"},
    {"areaName":"北海道 日高地方","placeName":"中杵臼（ナカキネウス）"},
    {"areaName":"北海道 日高地方","placeName":"浦河（ウラカワ）"},
    {"areaName":"北海道 日高地方","placeName":"目黒（メグロ）"},
    {"areaName":"北海道 日高地方","placeName":"幌満（ホロマン）"},
    {"areaName":"北海道 日高地方","placeName":"えりも岬（エリモミサキ）"},
    {"areaName":"北海道 渡島地方","placeName":"長万部（オシャマンベ）"},
    {"areaName":"北海道 渡島地方","placeName":"八雲（ヤクモ）"},
    {"areaName":"北海道 渡島地方","placeName":"森（モリ）"},
    {"areaName":"北海道 渡島地方","placeName":"大沼（オオヌマ）"},
    {"areaName":"北海道 渡島地方","placeName":"川汲（カックミ）"},
    {"areaName":"北海道 渡島地方","placeName":"北斗（ホクト）"},
    {"areaName":"北海道 渡島地方","placeName":"函館（ハコダテ）"},
    {"areaName":"北海道 渡島地方","placeName":"高松（タカマツ）"},
    {"areaName":"北海道 渡島地方","placeName":"戸井泊（トイトマリ）"},
    {"areaName":"北海道 渡島地方","placeName":"知内（シリウチ）"},
    {"areaName":"北海道 渡島地方","placeName":"木古内（キコナイ）"},
    {"areaName":"北海道 渡島地方","placeName":"千軒（センゲン）"},
    {"areaName":"北海道 渡島地方","placeName":"松前（マツマエ）"},
    {"areaName":"北海道 渡島地方","placeName":"熊石（クマイシ）"},
    {"areaName":"北海道 檜山地方","placeName":"せたな（セタナ）"},
    {"areaName":"北海道 檜山地方","placeName":"今金（イマカネ）"},
    {"areaName":"北海道 檜山地方","placeName":"奥尻（オクシリ）"},
    {"areaName":"北海道 檜山地方","placeName":"米岡（ヨネオカ）"},
    {"areaName":"北海道 檜山地方","placeName":"潮見（シオミ）"},
    {"areaName":"北海道 檜山地方","placeName":"鶉（ウズラ）"},
    {"areaName":"北海道 檜山地方","placeName":"江差（エサシ）"},
    {"areaName":"北海道 檜山地方","placeName":"石崎（イシザキ）"},
    {"areaName":"青森県","placeName":"大間（オオマ）"},
    {"areaName":"青森県","placeName":"湯野川（ユノカワ）"},
    {"areaName":"青森県","placeName":"むつ（ムツ）"},
    {"areaName":"青森県","placeName":"小田野沢（オダノサワ）"},
    {"areaName":"青森県","placeName":"今別（イマベツ）"},
    {"areaName":"青森県","placeName":"脇野沢（ワキノサワ）"},
    {"areaName":"青森県","placeName":"市浦（シウラ）"},
    {"areaName":"青森県","placeName":"蟹田（カニタ）"},
    {"areaName":"青森県","placeName":"五所川原（ゴショガワラ）"},
    {"areaName":"青森県","placeName":"青森（アオモリ）"},
    {"areaName":"青森県","placeName":"大和山（ヤマトヤマ）"},
    {"areaName":"青森県","placeName":"野辺地（ノヘジ）"},
    {"areaName":"青森県","placeName":"六ケ所（ロッカショ）"},
    {"areaName":"青森県","placeName":"鰺ケ沢（アジガサワ）"},
    {"areaName":"青森県","placeName":"青森大谷（アオモリオオタニ）"},
    {"areaName":"青森県","placeName":"七戸（シチノヘ）"},
    {"areaName":"青森県","placeName":"深浦（フカウラ）"},
    {"areaName":"青森県","placeName":"岳（ダケ）"},
    {"areaName":"青森県","placeName":"弘前（ヒロサキ）"},
    {"areaName":"青森県","placeName":"黒石（クロイシ）"},
    {"areaName":"青森県","placeName":"酸ケ湯（スカユ）"},
    {"areaName":"青森県","placeName":"三沢（ミサワ）"},
    {"areaName":"青森県","placeName":"大鰐（オオワニ）"},
    {"areaName":"青森県","placeName":"温川（ヌルカワ）"},
    {"areaName":"青森県","placeName":"十和田（トワダ）"},
    {"areaName":"青森県","placeName":"八戸（ハチノヘ）"},
    {"areaName":"青森県","placeName":"碇ケ関（イカリガセキ）"},
    {"areaName":"青森県","placeName":"休屋（ヤスミヤ）"},
    {"areaName":"青森県","placeName":"戸来（ヘライ）"},
    {"areaName":"青森県","placeName":"三戸（サンノヘ）"},
    {"areaName":"秋田県","placeName":"八森（ハチモリ）"},
    {"areaName":"秋田県","placeName":"藤里（フジサト）"},
    {"areaName":"秋田県","placeName":"陣場（ジンバ）"},
    {"areaName":"秋田県","placeName":"藤原（フジワラ）"},
    {"areaName":"秋田県","placeName":"能代（ノシロ）"},
    {"areaName":"秋田県","placeName":"鷹巣（タカノス）"},
    {"areaName":"秋田県","placeName":"大館（オオダテ）"},
    {"areaName":"秋田県","placeName":"鹿角（カヅノ）"},
    {"areaName":"秋田県","placeName":"脇神（ワキガミ）"},
    {"areaName":"秋田県","placeName":"湯瀬（ユゼ）"},
    {"areaName":"秋田県","placeName":"八幡平（ハチマンタイ）"},
    {"areaName":"秋田県","placeName":"男鹿真山（オガシンザン）"},
    {"areaName":"秋田県","placeName":"男鹿（オガ）"},
    {"areaName":"秋田県","placeName":"大潟（オオガタ）"},
    {"areaName":"秋田県","placeName":"五城目（ゴジョウメ）"},
    {"areaName":"秋田県","placeName":"阿仁合（アニアイ）"},
    {"areaName":"秋田県","placeName":"比立内（ヒタチナイ）"},
    {"areaName":"秋田県","placeName":"桧木内（ヒノキナイ）"},
    {"areaName":"秋田県","placeName":"秋田（アキタ）"},
    {"areaName":"秋田県","placeName":"岩見三内（イワミサンナイ）"},
    {"areaName":"秋田県","placeName":"仁別（ニベツ）"},
    {"areaName":"秋田県","placeName":"鎧畑（ヨロイバタ）"},
    {"areaName":"秋田県","placeName":"田沢湖高原（タザワココウゲン）"},
    {"areaName":"秋田県","placeName":"雄和（ユウワ）"},
    {"areaName":"秋田県","placeName":"角館（カクノダテ）"},
    {"areaName":"秋田県","placeName":"田沢湖（タザワコ）"},
    {"areaName":"秋田県","placeName":"大正寺（ダイショウジ）"},
    {"areaName":"秋田県","placeName":"大曲（オオマガリ）"},
    {"areaName":"秋田県","placeName":"本荘（ホンジョウ）"},
    {"areaName":"秋田県","placeName":"東由利（ヒガシユリ）"},
    {"areaName":"秋田県","placeName":"横手（ヨコテ）"},
    {"areaName":"秋田県","placeName":"にかほ（ニカホ）"},
    {"areaName":"秋田県","placeName":"矢島（ヤシマ）"},
    {"areaName":"秋田県","placeName":"笹子（ジネゴ）"},
    {"areaName":"秋田県","placeName":"湯沢（ユザワ）"},
    {"areaName":"秋田県","placeName":"東成瀬（ヒガシナルセ）"},
    {"areaName":"秋田県","placeName":"湯の岱（ユノタイ）"},
    {"areaName":"岩手県","placeName":"種市（タネイチ）"},
    {"areaName":"岩手県","placeName":"軽米（カルマイ）"},
    {"areaName":"岩手県","placeName":"二戸（ニノヘ）"},
    {"areaName":"岩手県","placeName":"大野（オオノ）"},
    {"areaName":"岩手県","placeName":"山形（ヤマガタ）"},
    {"areaName":"岩手県","placeName":"久慈（クジ）"},
    {"areaName":"岩手県","placeName":"荒屋（アラヤ）"},
    {"areaName":"岩手県","placeName":"奥中山（オクナカヤマ）"},
    {"areaName":"岩手県","placeName":"葛巻（クズマキ）"},
    {"areaName":"岩手県","placeName":"下戸鎖（シモトクサリ）"},
    {"areaName":"岩手県","placeName":"普代（フダイ）"},
    {"areaName":"岩手県","placeName":"岩手松尾（イワテマツオ）"},
    {"areaName":"岩手県","placeName":"一方井（イッカタイ）"},
    {"areaName":"岩手県","placeName":"好摩（コウマ）"},
    {"areaName":"岩手県","placeName":"岩泉（イワイズミ）"},
    {"areaName":"岩手県","placeName":"小本（オモト）"},
    {"areaName":"岩手県","placeName":"葛根田（カッコンダ）"},
    {"areaName":"岩手県","placeName":"滝沢（タキザワ）"},
    {"areaName":"岩手県","placeName":"薮川（ヤブカワ）"},
    {"areaName":"岩手県","placeName":"雫石（シズクイシ）"},
    {"areaName":"岩手県","placeName":"盛岡（モリオカ）"},
    {"areaName":"岩手県","placeName":"区界（クザカイ）"},
    {"areaName":"岩手県","placeName":"刈屋（カリヤ）"},
    {"areaName":"岩手県","placeName":"宮古（ミヤコ）"},
    {"areaName":"岩手県","placeName":"沢内（サワウチ）"},
    {"areaName":"岩手県","placeName":"紫波（シワ）"},
    {"areaName":"岩手県","placeName":"川井（カワイ）"},
    {"areaName":"岩手県","placeName":"豊沢（トヨサワ）"},
    {"areaName":"岩手県","placeName":"花巻（ハナマキ）"},
    {"areaName":"岩手県","placeName":"大迫（オオハサマ）"},
    {"areaName":"岩手県","placeName":"附馬牛（ツキモウシ）"},
    {"areaName":"岩手県","placeName":"大槌（オオツチ）"},
    {"areaName":"岩手県","placeName":"山田（ヤマダ）"},
    {"areaName":"岩手県","placeName":"湯田（ユダ）"},
    {"areaName":"岩手県","placeName":"遠野（トオノ）"},
    {"areaName":"岩手県","placeName":"新町（シンチョウ）"},
    {"areaName":"岩手県","placeName":"金ヶ崎（カネガサキ）"},
    {"areaName":"岩手県","placeName":"北上（キタカミ）"},
    {"areaName":"岩手県","placeName":"米里（ヨネサト）"},
    {"areaName":"岩手県","placeName":"釜石（カマイシ）"},
    {"areaName":"岩手県","placeName":"若柳（ワカヤナギ）"},
    {"areaName":"岩手県","placeName":"江刺（エサシ）"},
    {"areaName":"岩手県","placeName":"住田（スミタ）"},
    {"areaName":"岩手県","placeName":"祭畤（マツルベ）"},
    {"areaName":"岩手県","placeName":"衣川（コロモガワ）"},
    {"areaName":"岩手県","placeName":"大東（ダイトウ）"},
    {"areaName":"岩手県","placeName":"陸前高田（リクゼンタカタ）"},
    {"areaName":"岩手県","placeName":"大船渡（オオフナト）"},
    {"areaName":"岩手県","placeName":"一関（イチノセキ）"},
    {"areaName":"岩手県","placeName":"千厩（センマヤ）"},
    {"areaName":"宮城県","placeName":"駒ノ湯（コマノユ）"},
    {"areaName":"宮城県","placeName":"気仙沼（ケセンヌマ）"},
    {"areaName":"宮城県","placeName":"鴬沢（ウグイスザワ）"},
    {"areaName":"宮城県","placeName":"川渡（カワタビ）"},
    {"areaName":"宮城県","placeName":"築館（ツキダテ）"},
    {"areaName":"宮城県","placeName":"米山（ヨネヤマ）"},
    {"areaName":"宮城県","placeName":"志津川（シヅガワ）"},
    {"areaName":"宮城県","placeName":"加美（カミ）"},
    {"areaName":"宮城県","placeName":"古川（フルカワ）"},
    {"areaName":"宮城県","placeName":"桃生（モノウ）"},
    {"areaName":"宮城県","placeName":"雄勝（オガツ）"},
    {"areaName":"宮城県","placeName":"泉ケ岳（イズミガダケ）"},
    {"areaName":"宮城県","placeName":"大衡（オオヒラ）"},
    {"areaName":"宮城県","placeName":"鹿島台（カシマダイ）"},
    {"areaName":"宮城県","placeName":"東松島（ヒガシマツシマ）"},
    {"areaName":"宮城県","placeName":"石巻（イシノマキ）"},
    {"areaName":"宮城県","placeName":"女川（オナガワ）"},
    {"areaName":"宮城県","placeName":"新川（ニッカワ）"},
    {"areaName":"宮城県","placeName":"塩釜（シオガマ）"},
    {"areaName":"宮城県","placeName":"江ノ島（エノシマ）"},
    {"areaName":"宮城県","placeName":"仙台（センダイ）"},
    {"areaName":"宮城県","placeName":"岩沼（イワヌマ）"},
    {"areaName":"宮城県","placeName":"名取（ナトリ）"},
    {"areaName":"宮城県","placeName":"白石（シロイシ）"},
    {"areaName":"宮城県","placeName":"蔵王（ザオウ）"},
    {"areaName":"宮城県","placeName":"亘理（ワタリ）"},
    {"areaName":"宮城県","placeName":"丸森（マルモリ）"},
    {"areaName":"宮城県","placeName":"筆甫（ヒッポ）"},
    {"areaName":"山形県","placeName":"飛島（トビシマ）"},
    {"areaName":"山形県","placeName":"酒田（サカタ）"},
    {"areaName":"山形県","placeName":"酒田大沢（サカタオオサワ）"},
    {"areaName":"山形県","placeName":"差首鍋（サスナベ）"},
    {"areaName":"山形県","placeName":"浜中（ハマナカ）"},
    {"areaName":"山形県","placeName":"金山（カネヤマ）"},
    {"areaName":"山形県","placeName":"鶴岡（ツルオカ）"},
    {"areaName":"山形県","placeName":"狩川（カリカワ）"},
    {"areaName":"山形県","placeName":"新庄（シンジョウ）"},
    {"areaName":"山形県","placeName":"瀬見（セミ）"},
    {"areaName":"山形県","placeName":"向町（ムカイマチ）"},
    {"areaName":"山形県","placeName":"櫛引（クシビキ）"},
    {"areaName":"山形県","placeName":"肘折（ヒジオリ）"},
    {"areaName":"山形県","placeName":"尾花沢（オバナザワ）"},
    {"areaName":"山形県","placeName":"鼠ケ関（ネズガセキ）"},
    {"areaName":"山形県","placeName":"荒沢（アラサワ）"},
    {"areaName":"山形県","placeName":"村山（ムラヤマ）"},
    {"areaName":"山形県","placeName":"東根（ヒガシネ）"},
    {"areaName":"山形県","placeName":"大井沢（オオイサワ）"},
    {"areaName":"山形県","placeName":"左沢（アテラザワ）"},
    {"areaName":"山形県","placeName":"山形（ヤマガタ）"},
    {"areaName":"山形県","placeName":"長井（ナガイ）"},
    {"areaName":"山形県","placeName":"上山中山（カミノヤマナカヤマ）"},
    {"areaName":"山形県","placeName":"小国（オグニ）"},
    {"areaName":"山形県","placeName":"高畠（タカハタ）"},
    {"areaName":"山形県","placeName":"中津川（ナカツガワ）"},
    {"areaName":"山形県","placeName":"高峰（タカミネ）"},
    {"areaName":"山形県","placeName":"米沢（ヨネザワ）"},
    {"areaName":"福島県","placeName":"茂庭（モニワ）"},
    {"areaName":"福島県","placeName":"梁川（ヤナガワ）"},
    {"areaName":"福島県","placeName":"新地（シンチ）"},
    {"areaName":"福島県","placeName":"桧原（ヒバラ）"},
    {"areaName":"福島県","placeName":"福島（フクシマ）"},
    {"areaName":"福島県","placeName":"相馬（ソウマ）"},
    {"areaName":"福島県","placeName":"喜多方（キタカタ）"},
    {"areaName":"福島県","placeName":"鷲倉（ワシクラ）"},
    {"areaName":"福島県","placeName":"飯舘（イイタテ）"},
    {"areaName":"福島県","placeName":"原町（ハラマチ）"},
    {"areaName":"福島県","placeName":"西会津（ニシアイヅ）"},
    {"areaName":"福島県","placeName":"猪苗代（イナワシロ）"},
    {"areaName":"福島県","placeName":"二本松（ニホンマツ）"},
    {"areaName":"福島県","placeName":"津島（ツシマ）"},
    {"areaName":"福島県","placeName":"金山（カネヤマ）"},
    {"areaName":"福島県","placeName":"若松（ワカマツ）"},
    {"areaName":"福島県","placeName":"船引（フネヒキ）"},
    {"areaName":"福島県","placeName":"浪江（ナミエ）"},
    {"areaName":"福島県","placeName":"只見（タダミ）"},
    {"areaName":"福島県","placeName":"湖南（コナン）"},
    {"areaName":"福島県","placeName":"郡山（コオリヤマ）"},
    {"areaName":"福島県","placeName":"川内（カワウチ）"},
    {"areaName":"福島県","placeName":"富岡（トミオカ）"},
    {"areaName":"福島県","placeName":"南郷（ナンゴウ）"},
    {"areaName":"福島県","placeName":"湯本（ユモト）"},
    {"areaName":"福島県","placeName":"長沼（ナガヌマ）"},
    {"areaName":"福島県","placeName":"玉川（タマカワ）"},
    {"areaName":"福島県","placeName":"小野新町（オノニイマチ）"},
    {"areaName":"福島県","placeName":"川前（カワマエ）"},
    {"areaName":"福島県","placeName":"広野（ヒロノ）"},
    {"areaName":"福島県","placeName":"田島（タジマ）"},
    {"areaName":"福島県","placeName":"白河（シラカワ）"},
    {"areaName":"福島県","placeName":"石川（イシカワ）"},
    {"areaName":"福島県","placeName":"桧枝岐（ヒノエマタ）"},
    {"areaName":"福島県","placeName":"舘岩（タテイワ）"},
    {"areaName":"福島県","placeName":"古殿（フルドノ）"},
    {"areaName":"福島県","placeName":"平（タイラ）"},
    {"areaName":"福島県","placeName":"東白川（ヒガシシラカワ）"},
    {"areaName":"福島県","placeName":"山田（ヤマダ）"},
    {"areaName":"福島県","placeName":"小名浜（オナハマ）"},
    {"areaName":"茨城県","placeName":"花園（ハナゾノ）"},
    {"areaName":"茨城県","placeName":"北茨城（キタイバラキ）"},
    {"areaName":"茨城県","placeName":"大子（ダイゴ）"},
    {"areaName":"茨城県","placeName":"徳田（トクダ）"},
    {"areaName":"茨城県","placeName":"大能（オオノウ）"},
    {"areaName":"茨城県","placeName":"常陸大宮（ヒタチオオミヤ）"},
    {"areaName":"茨城県","placeName":"中野（ナカノ）"},
    {"areaName":"茨城県","placeName":"日立（ヒタチ）"},
    {"areaName":"茨城県","placeName":"門井（カドイ）"},
    {"areaName":"茨城県","placeName":"笠間（カサマ）"},
    {"areaName":"茨城県","placeName":"水戸（ミト）"},
    {"areaName":"茨城県","placeName":"古河（コガ）"},
    {"areaName":"茨城県","placeName":"下館（シモダテ）"},
    {"areaName":"茨城県","placeName":"柿岡（カキオカ）"},
    {"areaName":"茨城県","placeName":"美野里（ミノリ）"},
    {"areaName":"茨城県","placeName":"下妻（シモツマ）"},
    {"areaName":"茨城県","placeName":"鉾田（ホコタ）"},
    {"areaName":"茨城県","placeName":"坂東（バンドウ）"},
    {"areaName":"茨城県","placeName":"つくば（ツクバ）(館野（タテノ）)"},
    {"areaName":"茨城県","placeName":"土浦（ツチウラ）"},
    {"areaName":"茨城県","placeName":"江戸崎（エドサキ）"},
    {"areaName":"茨城県","placeName":"鹿嶋（カシマ）"},
    {"areaName":"茨城県","placeName":"龍ケ崎（リュウガサキ）"},
    {"areaName":"栃木県","placeName":"那須高原（ナスコウゲン）"},
    {"areaName":"栃木県","placeName":"五十里（イカリ）"},
    {"areaName":"栃木県","placeName":"黒磯（クロイソ）"},
    {"areaName":"栃木県","placeName":"土呂部（ドロブ）"},
    {"areaName":"栃木県","placeName":"大田原（オオタワラ）"},
    {"areaName":"栃木県","placeName":"奥日光（オクニッコウ）(日光（ニツコウ）)"},
    {"areaName":"栃木県","placeName":"今市（イマイチ）"},
    {"areaName":"栃木県","placeName":"塩谷（シオヤ）"},
    {"areaName":"栃木県","placeName":"足尾（アシオ）"},
    {"areaName":"栃木県","placeName":"高根沢（タカネザワ）"},
    {"areaName":"栃木県","placeName":"那須烏山（ナスカラスヤマ）"},
    {"areaName":"栃木県","placeName":"鹿沼（カヌマ）"},
    {"areaName":"栃木県","placeName":"宇都宮（ウツノミヤ）"},
    {"areaName":"栃木県","placeName":"葛生（クズウ）"},
    {"areaName":"栃木県","placeName":"真岡（モオカ）"},
    {"areaName":"栃木県","placeName":"足利（アシカガ）"},
    {"areaName":"栃木県","placeName":"佐野（サノ）"},
    {"areaName":"栃木県","placeName":"栃木（トチギ）"},
    {"areaName":"栃木県","placeName":"小山（オヤマ）"},
    {"areaName":"群馬県","placeName":"藤原（フジワラ）"},
    {"areaName":"群馬県","placeName":"みなかみ（ミナカミ）"},
    {"areaName":"群馬県","placeName":"片品（カタシナ）"},
    {"areaName":"群馬県","placeName":"草津（クサツ）"},
    {"areaName":"群馬県","placeName":"沼田（ヌマタ）"},
    {"areaName":"群馬県","placeName":"中之条（ナカノジョウ）"},
    {"areaName":"群馬県","placeName":"田代（タシロ）"},
    {"areaName":"群馬県","placeName":"榛名山（ハルナサン）"},
    {"areaName":"群馬県","placeName":"前橋（マエバシ）"},
    {"areaName":"群馬県","placeName":"黒保根（クロホネ）"},
    {"areaName":"群馬県","placeName":"桐生（キリュウ）"},
    {"areaName":"群馬県","placeName":"上里見（カミサトミ）"},
    {"areaName":"群馬県","placeName":"伊勢崎（イセサキ）"},
    {"areaName":"群馬県","placeName":"西野牧（ニシノマキ）"},
    {"areaName":"群馬県","placeName":"藤岡（フジオカ）"},
    {"areaName":"群馬県","placeName":"館林（タテバヤシ）"},
    {"areaName":"群馬県","placeName":"神流（カンナ）"},
    {"areaName":"埼玉県","placeName":"寄居（ヨリイ）"},
    {"areaName":"埼玉県","placeName":"熊谷（クマガヤ）"},
    {"areaName":"埼玉県","placeName":"上吉田（カミヨシダ）"},
    {"areaName":"埼玉県","placeName":"鴻巣（コウノス）"},
    {"areaName":"埼玉県","placeName":"久喜（クキ）"},
    {"areaName":"埼玉県","placeName":"三峰（ミツミネ）"},
    {"areaName":"埼玉県","placeName":"秩父（チチブ）"},
    {"areaName":"埼玉県","placeName":"浦山（ウラヤマ）"},
    {"areaName":"埼玉県","placeName":"ときがわ（トキガワ）"},
    {"areaName":"埼玉県","placeName":"鳩山（ハトヤマ）"},
    {"areaName":"埼玉県","placeName":"飯能（ハンノウ）"},
    {"areaName":"埼玉県","placeName":"さいたま（サイタマ）"},
    {"areaName":"埼玉県","placeName":"越谷（コシガヤ）"},
    {"areaName":"埼玉県","placeName":"所沢（トコロザワ）"},
    {"areaName":"東京都","placeName":"小河内（オゴウチ）"},
    {"areaName":"東京都","placeName":"小沢（オザワ）"},
    {"areaName":"東京都","placeName":"青梅（オウメ）"},
    {"areaName":"東京都","placeName":"練馬（ネリマ）"},
    {"areaName":"東京都","placeName":"八王子（ハチオウジ）"},
    {"areaName":"東京都","placeName":"府中（フチュウ）"},
    {"areaName":"東京都","placeName":"世田谷（セタガヤ）"},
    {"areaName":"東京都","placeName":"東京（トウキョウ）"},
    {"areaName":"東京都","placeName":"江戸川臨海（エドガワリンカイ）"},
    {"areaName":"東京都","placeName":"羽田（ハネダ）"},
    {"areaName":"東京都","placeName":"大島（オオシマ）"},
    {"areaName":"東京都","placeName":"大島北ノ山（オオシマキタノヤマ）"},
    {"areaName":"東京都","placeName":"利島（トシマ）"},
    {"areaName":"東京都","placeName":"新島（ニイジマ）"},
    {"areaName":"東京都","placeName":"神津島（コウヅシマ）"},
    {"areaName":"東京都","placeName":"三宅島（ミヤケジマ）"},
    {"areaName":"東京都","placeName":"三宅坪田（ミヤケツボタ）"},
    {"areaName":"東京都","placeName":"八重見ヶ原（ヤエミガハラ）"},
    {"areaName":"東京都","placeName":"八丈島（ハチジョウジマ）"},
    {"areaName":"東京都","placeName":"青ヶ島（アオガシマ）"},
    {"areaName":"東京都","placeName":"父島（チチジマ）"},
    {"areaName":"東京都","placeName":"母島（ハハジマ）"},
    {"areaName":"千葉県","placeName":"我孫子（アビコ）"},
    {"areaName":"千葉県","placeName":"香取（カトリ）"},
    {"areaName":"千葉県","placeName":"東庄（トウノショウ）"},
    {"areaName":"千葉県","placeName":"船橋（フナバシ）"},
    {"areaName":"千葉県","placeName":"佐倉（サクラ）"},
    {"areaName":"千葉県","placeName":"成田（ナリタ）"},
    {"areaName":"千葉県","placeName":"銚子（チョウシ）"},
    {"areaName":"千葉県","placeName":"横芝光（ヨコシバヒカリ）"},
    {"areaName":"千葉県","placeName":"千葉（チバ）"},
    {"areaName":"千葉県","placeName":"茂原（モバラ）"},
    {"areaName":"千葉県","placeName":"木更津（キサラヅ）"},
    {"areaName":"千葉県","placeName":"牛久（ウシク）"},
    {"areaName":"千葉県","placeName":"坂畑（サカハタ）"},
    {"areaName":"千葉県","placeName":"大多喜（オオタキ）"},
    {"areaName":"千葉県","placeName":"鋸南（キョナン）"},
    {"areaName":"千葉県","placeName":"鴨川（カモガワ）"},
    {"areaName":"千葉県","placeName":"勝浦（カツウラ）"},
    {"areaName":"千葉県","placeName":"館山（タテヤマ）"},
    {"areaName":"神奈川県","placeName":"相模湖（サガミコ）"},
    {"areaName":"神奈川県","placeName":"相模原中央（サガミハラチュウオウ）"},
    {"areaName":"神奈川県","placeName":"日吉（ヒヨシ）"},
    {"areaName":"神奈川県","placeName":"丹沢湖（タンザワコ）"},
    {"areaName":"神奈川県","placeName":"海老名（エビナ）"},
    {"areaName":"神奈川県","placeName":"横浜（ヨコハマ）"},
    {"areaName":"神奈川県","placeName":"平塚（ヒラツカ）"},
    {"areaName":"神奈川県","placeName":"辻堂（ツジドウ）"},
    {"areaName":"神奈川県","placeName":"箱根（ハコネ）"},
    {"areaName":"神奈川県","placeName":"小田原（オダワラ）"},
    {"areaName":"神奈川県","placeName":"三浦（ミウラ）"},
    {"areaName":"長野県","placeName":"野沢温泉（ノザワオンセン）"},
    {"areaName":"長野県","placeName":"信濃町（シナノマチ）"},
    {"areaName":"長野県","placeName":"飯山（イイヤマ）"},
    {"areaName":"長野県","placeName":"小谷（オタリ）"},
    {"areaName":"長野県","placeName":"白馬（ハクバ）"},
    {"areaName":"長野県","placeName":"鬼無里（キナサ）"},
    {"areaName":"長野県","placeName":"長野（ナガノ）"},
    {"areaName":"長野県","placeName":"笠岳（カサダケ）"},
    {"areaName":"長野県","placeName":"大町（オオマチ）"},
    {"areaName":"長野県","placeName":"信州新町（シンシュウシンマチ）"},
    {"areaName":"長野県","placeName":"菅平（スガダイラ）"},
    {"areaName":"長野県","placeName":"聖高原（ヒジリコウゲン）"},
    {"areaName":"長野県","placeName":"上田（ウエダ）"},
    {"areaName":"長野県","placeName":"穂高（ホタカ）"},
    {"areaName":"長野県","placeName":"東御（トウミ）"},
    {"areaName":"長野県","placeName":"軽井沢（カルイザワ）"},
    {"areaName":"長野県","placeName":"上高地（カミコウチ）"},
    {"areaName":"長野県","placeName":"松本（マツモト）"},
    {"areaName":"長野県","placeName":"松本今井（マツモトイマイ）"},
    {"areaName":"長野県","placeName":"鹿教湯（カケユ）"},
    {"areaName":"長野県","placeName":"立科（タテシナ）"},
    {"areaName":"長野県","placeName":"佐久（サク）"},
    {"areaName":"長野県","placeName":"白樺湖（シラカバコ）"},
    {"areaName":"長野県","placeName":"奈川（ナガワ）"},
    {"areaName":"長野県","placeName":"諏訪（スワ）"},
    {"areaName":"長野県","placeName":"北相木（キタアイキ）"},
    {"areaName":"長野県","placeName":"開田高原（カイダコウゲン）"},
    {"areaName":"長野県","placeName":"木祖薮原（キソヤブハラ）"},
    {"areaName":"長野県","placeName":"辰野（タツノ）"},
    {"areaName":"長野県","placeName":"高遠（タカトオ）"},
    {"areaName":"長野県","placeName":"原村（ハラムラ）"},
    {"areaName":"長野県","placeName":"野辺山（ノベヤマ）"},
    {"areaName":"長野県","placeName":"御嶽山（オンタケサン）"},
    {"areaName":"長野県","placeName":"木曽福島（キソフクシマ）"},
    {"areaName":"長野県","placeName":"伊那（イナ）"},
    {"areaName":"長野県","placeName":"宮田高原（ミヤダコウゲン）"},
    {"areaName":"長野県","placeName":"杉島（スギシマ）"},
    {"areaName":"長野県","placeName":"須原（スハラ）"},
    {"areaName":"長野県","placeName":"南木曽（ナギソ）"},
    {"areaName":"長野県","placeName":"飯島（イイジマ）"},
    {"areaName":"長野県","placeName":"大鹿（オオシカ）"},
    {"areaName":"長野県","placeName":"飯田（イイダ）"},
    {"areaName":"長野県","placeName":"浪合（ナミアイ）"},
    {"areaName":"長野県","placeName":"阿南（アナン）"},
    {"areaName":"長野県","placeName":"南信濃（ミナミシナノ）"},
    {"areaName":"山梨県","placeName":"大泉（オオイズミ）"},
    {"areaName":"山梨県","placeName":"乙女湖（オトメコ）"},
    {"areaName":"山梨県","placeName":"韮崎（ニラサキ）"},
    {"areaName":"山梨県","placeName":"甲府（コウフ）"},
    {"areaName":"山梨県","placeName":"勝沼（カツヌマ）"},
    {"areaName":"山梨県","placeName":"大月（オオツキ）"},
    {"areaName":"山梨県","placeName":"上野原（ウエノハラ）"},
    {"areaName":"山梨県","placeName":"富士川（フジカワ）"},
    {"areaName":"山梨県","placeName":"古関（フルセキ）"},
    {"areaName":"山梨県","placeName":"切石（キリイシ）"},
    {"areaName":"山梨県","placeName":"河口湖（カワグチコ）"},
    {"areaName":"山梨県","placeName":"山中（ヤマナカ）"},
    {"areaName":"山梨県","placeName":"南部（ナンブ）"},
    {"areaName":"静岡県","placeName":"白糸（シライト）"},
    {"areaName":"静岡県","placeName":"井川（イカワ）"},
    {"areaName":"静岡県","placeName":"有東木（ウトウギ）"},
    {"areaName":"静岡県","placeName":"御殿場（ゴテンバ）"},
    {"areaName":"静岡県","placeName":"富士（フジ）"},
    {"areaName":"静岡県","placeName":"三島（ミシマ）"},
    {"areaName":"静岡県","placeName":"佐久間（サクマ）"},
    {"areaName":"静岡県","placeName":"春野（ハルノ）"},
    {"areaName":"静岡県","placeName":"川根本町（カワネホンチョウ）"},
    {"areaName":"静岡県","placeName":"鍵穴（カギアナ）"},
    {"areaName":"静岡県","placeName":"清水（シミズ）"},
    {"areaName":"静岡県","placeName":"網代（アジロ）"},
    {"areaName":"静岡県","placeName":"熊（クマ）"},
    {"areaName":"静岡県","placeName":"高根山（タカネサン）"},
    {"areaName":"静岡県","placeName":"静岡（シズオカ）"},
    {"areaName":"静岡県","placeName":"三ヶ日（ミッカビ）"},
    {"areaName":"静岡県","placeName":"天竜（テンリュウ）"},
    {"areaName":"静岡県","placeName":"三倉（ミクラ）"},
    {"areaName":"静岡県","placeName":"土肥（トイ）"},
    {"areaName":"静岡県","placeName":"湯ケ島（ユガシマ）"},
    {"areaName":"静岡県","placeName":"天城山（アマギサン）"},
    {"areaName":"静岡県","placeName":"浜松（ハママツ）"},
    {"areaName":"静岡県","placeName":"掛川（カケガワ）"},
    {"areaName":"静岡県","placeName":"菊川牧之原（キクガワマキノハラ）"},
    {"areaName":"静岡県","placeName":"静岡空港（シズオカクウコウ）"},
    {"areaName":"静岡県","placeName":"松崎（マツザキ）"},
    {"areaName":"静岡県","placeName":"稲取（イナトリ）"},
    {"areaName":"静岡県","placeName":"磐田（イワタ）"},
    {"areaName":"静岡県","placeName":"御前崎（オマエザキ）"},
    {"areaName":"静岡県","placeName":"石廊崎（イロウザキ）"},
    {"areaName":"愛知県","placeName":"一宮（イチノミヤ）"},
    {"areaName":"愛知県","placeName":"愛西（アイサイ）"},
    {"areaName":"愛知県","placeName":"小原（オバラ）"},
    {"areaName":"愛知県","placeName":"稲武（イナブ）"},
    {"areaName":"愛知県","placeName":"茶臼山（チャウスヤマ）"},
    {"areaName":"愛知県","placeName":"蟹江（カニエ）"},
    {"areaName":"愛知県","placeName":"名古屋（ナゴヤ）"},
    {"areaName":"愛知県","placeName":"豊田（トヨタ）"},
    {"areaName":"愛知県","placeName":"阿蔵（アゾウ）"},
    {"areaName":"愛知県","placeName":"大府（オオブ）"},
    {"areaName":"愛知県","placeName":"岡崎（オカザキ）"},
    {"areaName":"愛知県","placeName":"作手（ツクデ）"},
    {"areaName":"愛知県","placeName":"新城（シンシロ）"},
    {"areaName":"愛知県","placeName":"セントレア（セントレア）"},
    {"areaName":"愛知県","placeName":"一色（イッシキ）"},
    {"areaName":"愛知県","placeName":"蒲郡（ガマゴオリ）"},
    {"areaName":"愛知県","placeName":"南知多（ミナミチタ）"},
    {"areaName":"愛知県","placeName":"豊橋（トヨハシ）"},
    {"areaName":"愛知県","placeName":"伊良湖（イラコ）"},
    {"areaName":"愛知県","placeName":"田原（タハラ）"},
    {"areaName":"岐阜県","placeName":"河合（カワイ）"},
    {"areaName":"岐阜県","placeName":"神岡（カミオカ）"},
    {"areaName":"岐阜県","placeName":"白川（シラカワ）"},
    {"areaName":"岐阜県","placeName":"栃尾（トチオ）"},
    {"areaName":"岐阜県","placeName":"御母衣（ミボロ）"},
    {"areaName":"岐阜県","placeName":"清見（キヨミ）"},
    {"areaName":"岐阜県","placeName":"高山（タカヤマ）"},
    {"areaName":"岐阜県","placeName":"丹生川（ニュウカワ）"},
    {"areaName":"岐阜県","placeName":"ひるがの（ヒルガノ）"},
    {"areaName":"岐阜県","placeName":"六厩（ムマヤ）"},
    {"areaName":"岐阜県","placeName":"船山（フナヤマ）"},
    {"areaName":"岐阜県","placeName":"宮之前（ミヤノマエ）"},
    {"areaName":"岐阜県","placeName":"長滝（ナガタキ）"},
    {"areaName":"岐阜県","placeName":"萩原（ハギワラ）"},
    {"areaName":"岐阜県","placeName":"関市板取（セキシイタドリ）"},
    {"areaName":"岐阜県","placeName":"八幡（ハチマン）"},
    {"areaName":"岐阜県","placeName":"宮地（ミヤジ）"},
    {"areaName":"岐阜県","placeName":"樽見（タルミ）"},
    {"areaName":"岐阜県","placeName":"金山（カナヤマ）"},
    {"areaName":"岐阜県","placeName":"付知（ツケチ）"},
    {"areaName":"岐阜県","placeName":"美濃（ミノ）"},
    {"areaName":"岐阜県","placeName":"伽藍（ガラン）"},
    {"areaName":"岐阜県","placeName":"黒川（クロカワ）"},
    {"areaName":"岐阜県","placeName":"揖斐川（イビガワ）"},
    {"areaName":"岐阜県","placeName":"美濃加茂（ミノカモ）"},
    {"areaName":"岐阜県","placeName":"恵那（エナ）"},
    {"areaName":"岐阜県","placeName":"中津川（ナカツガワ）"},
    {"areaName":"岐阜県","placeName":"関ケ原（セキガハラ）"},
    {"areaName":"岐阜県","placeName":"大垣（オオガキ）"},
    {"areaName":"岐阜県","placeName":"岐阜（ギフ）"},
    {"areaName":"岐阜県","placeName":"多治見（タジミ）"},
    {"areaName":"岐阜県","placeName":"上石津（カミイシヅ）"},
    {"areaName":"三重県","placeName":"北勢（ホクセイ）"},
    {"areaName":"三重県","placeName":"桑名（クワナ）"},
    {"areaName":"三重県","placeName":"四日市（ヨッカイチ）"},
    {"areaName":"三重県","placeName":"亀山（カメヤマ）"},
    {"areaName":"三重県","placeName":"上野（ウエノ）"},
    {"areaName":"三重県","placeName":"笠取山（カサトリヤマ）"},
    {"areaName":"三重県","placeName":"津（ツ）"},
    {"areaName":"三重県","placeName":"名張（ナバリ）"},
    {"areaName":"三重県","placeName":"白山（ハクサン）"},
    {"areaName":"三重県","placeName":"小俣（オバタ）"},
    {"areaName":"三重県","placeName":"粥見（カユミ）"},
    {"areaName":"三重県","placeName":"鳥羽（トバ）"},
    {"areaName":"三重県","placeName":"藤坂峠（フジサカトウゲ）"},
    {"areaName":"三重県","placeName":"南伊勢（ミナミイセ）"},
    {"areaName":"三重県","placeName":"阿児（アゴ）"},
    {"areaName":"三重県","placeName":"宮川（ミヤガワ）"},
    {"areaName":"三重県","placeName":"紀伊長島（キイナガシマ）"},
    {"areaName":"三重県","placeName":"尾鷲（オワセ）"},
    {"areaName":"三重県","placeName":"熊野新鹿（クマノアタシカ）"},
    {"areaName":"三重県","placeName":"御浜（ミハマ）"},
    {"areaName":"新潟県","placeName":"粟島（アワシマ）"},
    {"areaName":"新潟県","placeName":"弾崎（ハジキザキ）"},
    {"areaName":"新潟県","placeName":"高根（タカネ）"},
    {"areaName":"新潟県","placeName":"村上（ムラカミ）"},
    {"areaName":"新潟県","placeName":"三面（ミオモテ）"},
    {"areaName":"新潟県","placeName":"相川（アイカワ）"},
    {"areaName":"新潟県","placeName":"両津（リョウツ）"},
    {"areaName":"新潟県","placeName":"中条（ナカジョウ）"},
    {"areaName":"新潟県","placeName":"下関（シモセキ）"},
    {"areaName":"新潟県","placeName":"新潟（ニイガタ）"},
    {"areaName":"新潟県","placeName":"松浜（マツハマ）"},
    {"areaName":"新潟県","placeName":"羽茂（ハモチ）"},
    {"areaName":"新潟県","placeName":"新津（ニイツ）"},
    {"areaName":"新潟県","placeName":"瓢湖（ヒョウコ）"},
    {"areaName":"新潟県","placeName":"赤谷（アカダニ）"},
    {"areaName":"新潟県","placeName":"巻（マキ）"},
    {"areaName":"新潟県","placeName":"寺泊（テラドマリ）"},
    {"areaName":"新潟県","placeName":"三条（サンジョウ）"},
    {"areaName":"新潟県","placeName":"村松（ムラマツ）"},
    {"areaName":"新潟県","placeName":"津川（ツガワ）"},
    {"areaName":"新潟県","placeName":"宮寄上（ミヤヨリカミ）"},
    {"areaName":"新潟県","placeName":"室谷（ムロヤ）"},
    {"areaName":"新潟県","placeName":"長岡（ナガオカ）"},
    {"areaName":"新潟県","placeName":"栃尾（トチオ）"},
    {"areaName":"新潟県","placeName":"柏崎（カシワザキ）"},
    {"areaName":"新潟県","placeName":"守門（スモン）"},
    {"areaName":"新潟県","placeName":"大潟（オオガタ）"},
    {"areaName":"新潟県","placeName":"小国（オグニ）"},
    {"areaName":"新潟県","placeName":"小出（コイデ）"},
    {"areaName":"新潟県","placeName":"大湯（オオユ）"},
    {"areaName":"新潟県","placeName":"高田（タカダ）"},
    {"areaName":"新潟県","placeName":"安塚（ヤスヅカ）"},
    {"areaName":"新潟県","placeName":"川谷（カワダニ）"},
    {"areaName":"新潟県","placeName":"松代（マツダイ）"},
    {"areaName":"新潟県","placeName":"十日町（トオカマチ）"},
    {"areaName":"新潟県","placeName":"糸魚川（イトイガワ）"},
    {"areaName":"新潟県","placeName":"能生（ノウ）"},
    {"areaName":"新潟県","placeName":"筒方（ドウガタ）"},
    {"areaName":"新潟県","placeName":"塩沢（シオザワ）"},
    {"areaName":"新潟県","placeName":"関山（セキヤマ）"},
    {"areaName":"新潟県","placeName":"津南（ツナン）"},
    {"areaName":"新潟県","placeName":"湯沢（ユザワ）"},
    {"areaName":"新潟県","placeName":"平岩（ヒライワ）"},
    {"areaName":"新潟県","placeName":"樽本（タルモト）"},
    {"areaName":"富山県","placeName":"朝日（アサヒ）"},
    {"areaName":"富山県","placeName":"氷見（ヒミ）"},
    {"areaName":"富山県","placeName":"魚津（ウオヅ）"},
    {"areaName":"富山県","placeName":"宇奈月（ウナヅキ）"},
    {"areaName":"富山県","placeName":"伏木（フシキ）"},
    {"areaName":"富山県","placeName":"富山（トヤマ）"},
    {"areaName":"富山県","placeName":"砺波（トナミ）"},
    {"areaName":"富山県","placeName":"秋ヶ島（アキガシマ）"},
    {"areaName":"富山県","placeName":"大山（オオヤマ）"},
    {"areaName":"富山県","placeName":"上市（カミイチ）"},
    {"areaName":"富山県","placeName":"南砺高宮（ナントタカミヤ）"},
    {"areaName":"富山県","placeName":"八尾（ヤツオ）"},
    {"areaName":"富山県","placeName":"立山芦峅（タテヤマアシクラ）"},
    {"areaName":"富山県","placeName":"五箇山（ゴカヤマ）"},
    {"areaName":"富山県","placeName":"猪谷（イノタニ）"},
    {"areaName":"石川県","placeName":"珠洲（スズ）"},
    {"areaName":"石川県","placeName":"輪島（ワジマ）"},
    {"areaName":"石川県","placeName":"門前（モンゼン）"},
    {"areaName":"石川県","placeName":"三井（ミイ）"},
    {"areaName":"石川県","placeName":"志賀（シカ）"},
    {"areaName":"石川県","placeName":"七尾（ナナオ）"},
    {"areaName":"石川県","placeName":"羽咋（ハクイ）"},
    {"areaName":"石川県","placeName":"かほく（カホク）"},
    {"areaName":"石川県","placeName":"宝達志水（ホウダツシミズ）"},
    {"areaName":"石川県","placeName":"金沢（カナザワ）"},
    {"areaName":"石川県","placeName":"医王山（イオウゼン）"},
    {"areaName":"石川県","placeName":"小松（コマツ）"},
    {"areaName":"石川県","placeName":"白山河内（ハクサンカワチ）"},
    {"areaName":"石川県","placeName":"加賀菅谷（カガスガタニ）"},
    {"areaName":"石川県","placeName":"白山白峰（ハクサンシラミネ）"},
    {"areaName":"石川県","placeName":"舳倉島（ヘグラジマ）"},
    {"areaName":"福井県","placeName":"三国（ミクニ）"},
    {"areaName":"福井県","placeName":"春江（ハルエ）"},
    {"areaName":"福井県","placeName":"越廼（コシノ）"},
    {"areaName":"福井県","placeName":"福井（フクイ）"},
    {"areaName":"福井県","placeName":"美山（ミヤマ）"},
    {"areaName":"福井県","placeName":"勝山（カツヤマ）"},
    {"areaName":"福井県","placeName":"武生（タケフ）"},
    {"areaName":"福井県","placeName":"大野（オオノ）"},
    {"areaName":"福井県","placeName":"九頭竜（クズリュウ）"},
    {"areaName":"福井県","placeName":"今庄（イマジョウ）"},
    {"areaName":"福井県","placeName":"敦賀（ツルガ）"},
    {"areaName":"福井県","placeName":"美浜（ミハマ）"},
    {"areaName":"福井県","placeName":"大飯（オオイ）"},
    {"areaName":"福井県","placeName":"小浜（オバマ）"},
    {"areaName":"滋賀県","placeName":"柳ケ瀬（ヤナガセ）"},
    {"areaName":"滋賀県","placeName":"今津（イマヅ）"},
    {"areaName":"滋賀県","placeName":"長浜（ナガハマ）"},
    {"areaName":"滋賀県","placeName":"朽木平良（クツキヘラ）"},
    {"areaName":"滋賀県","placeName":"米原（マイバラ）"},
    {"areaName":"滋賀県","placeName":"南小松（ミナミコマツ）"},
    {"areaName":"滋賀県","placeName":"彦根（ヒコネ）"},
    {"areaName":"滋賀県","placeName":"近江八幡（オウミハチマン）"},
    {"areaName":"滋賀県","placeName":"東近江（ヒガシオウミ）"},
    {"areaName":"滋賀県","placeName":"大津（オオツ）"},
    {"areaName":"滋賀県","placeName":"信楽（シガラキ）"},
    {"areaName":"滋賀県","placeName":"土山（ツチヤマ）"},
    {"areaName":"京都府","placeName":"間人（タイザ）"},
    {"areaName":"京都府","placeName":"峰山（ミネヤマ）"},
    {"areaName":"京都府","placeName":"宮津（ミヤヅ）"},
    {"areaName":"京都府","placeName":"坂浦（サカウラ）"},
    {"areaName":"京都府","placeName":"舞鶴（マイヅル）"},
    {"areaName":"京都府","placeName":"睦寄（ムツヨリ）"},
    {"areaName":"京都府","placeName":"福知山（フクチヤマ）"},
    {"areaName":"京都府","placeName":"綾部（アヤベ）"},
    {"areaName":"京都府","placeName":"三和（ミワ）"},
    {"areaName":"京都府","placeName":"本庄（ホンジョウ）"},
    {"areaName":"京都府","placeName":"美山（ミヤマ）"},
    {"areaName":"京都府","placeName":"須知（シュウチ）"},
    {"areaName":"京都府","placeName":"園部（ソノベ）"},
    {"areaName":"京都府","placeName":"京北（ケイホク）"},
    {"areaName":"京都府","placeName":"京都（キョウト）"},
    {"areaName":"京都府","placeName":"長岡京（ナガオカキョウ）"},
    {"areaName":"京都府","placeName":"京田辺（キョウタナベ）"},
    {"areaName":"大阪府","placeName":"能勢（ノセ）"},
    {"areaName":"大阪府","placeName":"茨木（イバラキ）"},
    {"areaName":"大阪府","placeName":"枚方（ヒラカタ）"},
    {"areaName":"大阪府","placeName":"豊中（トヨナカ）"},
    {"areaName":"大阪府","placeName":"大阪（オオサカ）"},
    {"areaName":"大阪府","placeName":"生駒山（イコマヤマ）"},
    {"areaName":"大阪府","placeName":"堺（サカイ）"},
    {"areaName":"大阪府","placeName":"八尾（ヤオ）"},
    {"areaName":"大阪府","placeName":"関空島（カンクウジマ）"},
    {"areaName":"大阪府","placeName":"河内長野（カワチナガノ）"},
    {"areaName":"大阪府","placeName":"熊取（クマトリ）"},
    {"areaName":"兵庫県","placeName":"香住（カスミ）"},
    {"areaName":"兵庫県","placeName":"温泉（オンセン）"},
    {"areaName":"兵庫県","placeName":"豊岡（トヨオカ）"},
    {"areaName":"兵庫県","placeName":"兎和野高原（ウワノコウゲン）"},
    {"areaName":"兵庫県","placeName":"大屋（オオヤ）"},
    {"areaName":"兵庫県","placeName":"八鹿（ヨウカ）"},
    {"areaName":"兵庫県","placeName":"和田山（ワダヤマ）"},
    {"areaName":"兵庫県","placeName":"生野（イクノ）"},
    {"areaName":"兵庫県","placeName":"柏原（カイバラ）"},
    {"areaName":"兵庫県","placeName":"佐用（サヨウ）"},
    {"areaName":"兵庫県","placeName":"一宮（イチノミヤ）"},
    {"areaName":"兵庫県","placeName":"福崎（フクサキ）"},
    {"areaName":"兵庫県","placeName":"西脇（ニシワキ）"},
    {"areaName":"兵庫県","placeName":"後川（シツカワ）"},
    {"areaName":"兵庫県","placeName":"上郡（カミゴオリ）"},
    {"areaName":"兵庫県","placeName":"姫路（ヒメジ）"},
    {"areaName":"兵庫県","placeName":"三田（サンダ）"},
    {"areaName":"兵庫県","placeName":"三木（ミキ）"},
    {"areaName":"兵庫県","placeName":"西宮（ニシノミヤ）"},
    {"areaName":"兵庫県","placeName":"家島（イエシマ）"},
    {"areaName":"兵庫県","placeName":"明石（アカシ）"},
    {"areaName":"兵庫県","placeName":"神戸空港（コウベクウコウ）"},
    {"areaName":"兵庫県","placeName":"神戸（コウベ）"},
    {"areaName":"兵庫県","placeName":"郡家（グンゲ）"},
    {"areaName":"兵庫県","placeName":"洲本（スモト）"},
    {"areaName":"兵庫県","placeName":"南淡（ナンダン）"},
    {"areaName":"奈良県","placeName":"奈良（ナラ）"},
    {"areaName":"奈良県","placeName":"針（ハリ）"},
    {"areaName":"奈良県","placeName":"田原本（タワラモト）"},
    {"areaName":"奈良県","placeName":"曽爾（ソニ）"},
    {"areaName":"奈良県","placeName":"葛城（カツラギ）"},
    {"areaName":"奈良県","placeName":"大宇陀（オオウダ）"},
    {"areaName":"奈良県","placeName":"五條（ゴジョウ）"},
    {"areaName":"奈良県","placeName":"吉野（ヨシノ）"},
    {"areaName":"奈良県","placeName":"天川（テンカワ）"},
    {"areaName":"奈良県","placeName":"上北山（カミキタヤマ）"},
    {"areaName":"奈良県","placeName":"風屋（カゼヤ）"},
    {"areaName":"奈良県","placeName":"下北山（シモキタヤマ）"},
    {"areaName":"奈良県","placeName":"玉置山（タマキヤマ）"},
    {"areaName":"和歌山県","placeName":"葛城山（カツラギサン）"},
    {"areaName":"和歌山県","placeName":"かつらぎ（カツラギ）"},
    {"areaName":"和歌山県","placeName":"友ケ島（トモガシマ）"},
    {"areaName":"和歌山県","placeName":"和歌山（ワカヤマ）"},
    {"areaName":"和歌山県","placeName":"高野山（コウヤサン）"},
    {"areaName":"和歌山県","placeName":"湯浅（ユアサ）"},
    {"areaName":"和歌山県","placeName":"清水（シミズ）"},
    {"areaName":"和歌山県","placeName":"護摩壇山（ゴマダンザン）"},
    {"areaName":"和歌山県","placeName":"龍神（リュウジン）"},
    {"areaName":"和歌山県","placeName":"川辺（カワベ）"},
    {"areaName":"和歌山県","placeName":"本宮（ホングウ）"},
    {"areaName":"和歌山県","placeName":"栗栖川（クリスガワ）"},
    {"areaName":"和歌山県","placeName":"新宮（シングウ）"},
    {"areaName":"和歌山県","placeName":"南紀白浜（ナンキシラハマ）"},
    {"areaName":"和歌山県","placeName":"西川（ニシカワ）"},
    {"areaName":"和歌山県","placeName":"色川（イロカワ）"},
    {"areaName":"和歌山県","placeName":"日置川（ヒキガワ）"},
    {"areaName":"和歌山県","placeName":"潮岬（シオノミサキ）"},
    {"areaName":"岡山県","placeName":"上長田（カミナガタ）"},
    {"areaName":"岡山県","placeName":"恩原（オンバラ）"},
    {"areaName":"岡山県","placeName":"千屋（チヤ）"},
    {"areaName":"岡山県","placeName":"富（トミ）"},
    {"areaName":"岡山県","placeName":"奈義（ナギ）"},
    {"areaName":"岡山県","placeName":"今岡（イマオカ）"},
    {"areaName":"岡山県","placeName":"久世（クセ）"},
    {"areaName":"岡山県","placeName":"津山（ツヤマ）"},
    {"areaName":"岡山県","placeName":"新見（ニイミ）"},
    {"areaName":"岡山県","placeName":"下呰部（シモアザエ）"},
    {"areaName":"岡山県","placeName":"旭西（アサヒニシ）"},
    {"areaName":"岡山県","placeName":"赤磐（アカイワ）"},
    {"areaName":"岡山県","placeName":"陣山（ジンヤマ）"},
    {"areaName":"岡山県","placeName":"吉備中央（キビチュウオウ）"},
    {"areaName":"岡山県","placeName":"福渡（フクワタリ）"},
    {"areaName":"岡山県","placeName":"和気（ワケ）"},
    {"areaName":"岡山県","placeName":"高梁（タカハシ）"},
    {"areaName":"岡山県","placeName":"日応寺（ニチオウジ）"},
    {"areaName":"岡山県","placeName":"佐屋（サヤ）"},
    {"areaName":"岡山県","placeName":"矢掛（ヤカゲ）"},
    {"areaName":"岡山県","placeName":"岡山（オカヤマ）"},
    {"areaName":"岡山県","placeName":"虫明（ムシアゲ）"},
    {"areaName":"岡山県","placeName":"倉敷（クラシキ）"},
    {"areaName":"岡山県","placeName":"笠岡（カサオカ）"},
    {"areaName":"岡山県","placeName":"玉野（タマノ）"},
    {"areaName":"広島県","placeName":"高野（タカノ）"},
    {"areaName":"広島県","placeName":"道後山（ドウゴヤマ）"},
    {"areaName":"広島県","placeName":"君田（キミタ）"},
    {"areaName":"広島県","placeName":"三次（ミヨシ）"},
    {"areaName":"広島県","placeName":"庄原（ショウバラ）"},
    {"areaName":"広島県","placeName":"東城（トウジョウ）"},
    {"areaName":"広島県","placeName":"八幡（ヤワタ）"},
    {"areaName":"広島県","placeName":"大朝（オオアサ）"},
    {"areaName":"広島県","placeName":"美土里（ミドリ）"},
    {"areaName":"広島県","placeName":"油木（ユキ）"},
    {"areaName":"広島県","placeName":"王泊（オオドマリ）"},
    {"areaName":"広島県","placeName":"加計（カケ）"},
    {"areaName":"広島県","placeName":"都志見（ツシミ）"},
    {"areaName":"広島県","placeName":"甲田（コウダ）"},
    {"areaName":"広島県","placeName":"上下（ジョウゲ）"},
    {"areaName":"広島県","placeName":"内黒山（ウチグロヤマ）"},
    {"areaName":"広島県","placeName":"三入（ミイリ）"},
    {"areaName":"広島県","placeName":"安宿（アスカ）"},
    {"areaName":"広島県","placeName":"世羅（セラ）"},
    {"areaName":"広島県","placeName":"府中（フチュウ）"},
    {"areaName":"広島県","placeName":"佐伯湯来（サエキユキ）"},
    {"areaName":"広島県","placeName":"志和（シワ）"},
    {"areaName":"広島県","placeName":"東広島（ヒガシヒロシマ）"},
    {"areaName":"広島県","placeName":"本郷（ホンゴウ）"},
    {"areaName":"広島県","placeName":"福山（フクヤマ）"},
    {"areaName":"広島県","placeName":"廿日市津田（ハツカイチツタ）"},
    {"areaName":"広島県","placeName":"広島（ヒロシマ）"},
    {"areaName":"広島県","placeName":"竹原（タケハラ）"},
    {"areaName":"広島県","placeName":"生口島（イクチジマ）"},
    {"areaName":"広島県","placeName":"大竹（オオタケ）"},
    {"areaName":"広島県","placeName":"呉（クレ）"},
    {"areaName":"広島県","placeName":"倉橋（クラハシ）"},
    {"areaName":"広島県","placeName":"呉市蒲刈（クレシカマガリ）"},
    {"areaName":"島根県","placeName":"西郷（サイゴウ）"},
    {"areaName":"島根県","placeName":"西郷岬（サイゴウミサキ）"},
    {"areaName":"島根県","placeName":"海士（アマ）"},
    {"areaName":"島根県","placeName":"鹿島（カシマ）"},
    {"areaName":"島根県","placeName":"斐川（ヒカワ）"},
    {"areaName":"島根県","placeName":"松江（マツエ）"},
    {"areaName":"島根県","placeName":"出雲（イズモ）"},
    {"areaName":"島根県","placeName":"大東（ダイトウ）"},
    {"areaName":"島根県","placeName":"伯太（ハクタ）"},
    {"areaName":"島根県","placeName":"佐田（サダ）"},
    {"areaName":"島根県","placeName":"大田（オオダ）"},
    {"areaName":"島根県","placeName":"掛合（カケヤ）"},
    {"areaName":"島根県","placeName":"横田（ヨコタ）"},
    {"areaName":"島根県","placeName":"福光（フクミツ）"},
    {"areaName":"島根県","placeName":"赤名（アカナ）"},
    {"areaName":"島根県","placeName":"桜江（サクラエ）"},
    {"areaName":"島根県","placeName":"川本（カワモト）"},
    {"areaName":"島根県","placeName":"浜田（ハマダ）"},
    {"areaName":"島根県","placeName":"瑞穂（ミズホ）"},
    {"areaName":"島根県","placeName":"三隅（ミスミ）"},
    {"areaName":"島根県","placeName":"弥栄（ヤサカ）"},
    {"areaName":"島根県","placeName":"波佐（ハザ）"},
    {"areaName":"島根県","placeName":"高津（タカツ）"},
    {"areaName":"島根県","placeName":"益田（マスダ）"},
    {"areaName":"島根県","placeName":"匹見（ヒキミ）"},
    {"areaName":"島根県","placeName":"津和野（ツワノ）"},
    {"areaName":"島根県","placeName":"吉賀（ヨシカ）"},
    {"areaName":"鳥取県","placeName":"境（サカイ）"},
    {"areaName":"鳥取県","placeName":"塩津（シオツ）"},
    {"areaName":"鳥取県","placeName":"青谷（アオヤ）"},
    {"areaName":"鳥取県","placeName":"湖山（コヤマ）"},
    {"areaName":"鳥取県","placeName":"岩井（イワイ）"},
    {"areaName":"鳥取県","placeName":"米子（ヨナゴ）"},
    {"areaName":"鳥取県","placeName":"倉吉（クラヨシ）"},
    {"areaName":"鳥取県","placeName":"鹿野（シカノ）"},
    {"areaName":"鳥取県","placeName":"鳥取（トットリ）"},
    {"areaName":"鳥取県","placeName":"大山（ダイセン）"},
    {"areaName":"鳥取県","placeName":"関金（セキガネ）"},
    {"areaName":"鳥取県","placeName":"佐治（サジ）"},
    {"areaName":"鳥取県","placeName":"若桜（ワカサ）"},
    {"areaName":"鳥取県","placeName":"江尾（エビ）"},
    {"areaName":"鳥取県","placeName":"智頭（チズ）"},
    {"areaName":"鳥取県","placeName":"茶屋（チャヤ）"},
    {"areaName":"徳島県","placeName":"池田（イケダ）"},
    {"areaName":"徳島県","placeName":"穴吹（アナブキ）"},
    {"areaName":"徳島県","placeName":"徳島（トクシマ）"},
    {"areaName":"徳島県","placeName":"半田（ハンダ）"},
    {"areaName":"徳島県","placeName":"京上（キョウジョウ）"},
    {"areaName":"徳島県","placeName":"福原旭（フクハラアサヒ）"},
    {"areaName":"徳島県","placeName":"蒲生田（カモダ）"},
    {"areaName":"徳島県","placeName":"木頭（キトウ）"},
    {"areaName":"徳島県","placeName":"日和佐（ヒワサ）"},
    {"areaName":"徳島県","placeName":"海陽（カイヨウ）"},
    {"areaName":"香川県","placeName":"内海（ウチノミ）"},
    {"areaName":"香川県","placeName":"高松（タカマツ）"},
    {"areaName":"香川県","placeName":"多度津（タドツ）"},
    {"areaName":"香川県","placeName":"滝宮（タキノミヤ）"},
    {"areaName":"香川県","placeName":"香南（コウナン）"},
    {"areaName":"香川県","placeName":"引田（ヒケタ）"},
    {"areaName":"香川県","placeName":"財田（サイタ）"},
    {"areaName":"徳島県","placeName":"竜王山（リュウオウザン）"},
    {"areaName":"愛媛県","placeName":"大三島（オオミシマ）"},
    {"areaName":"愛媛県","placeName":"玉川（タマガワ）"},
    {"areaName":"愛媛県","placeName":"今治（イマバリ）"},
    {"areaName":"愛媛県","placeName":"西条（サイジョウ）"},
    {"areaName":"愛媛県","placeName":"新居浜（ニイハマ）"},
    {"areaName":"愛媛県","placeName":"四国中央（シコクチュウオウ）"},
    {"areaName":"愛媛県","placeName":"富郷（トミサト）"},
    {"areaName":"愛媛県","placeName":"松山（マツヤマ）"},
    {"areaName":"愛媛県","placeName":"松山南吉田（マツヤマミナミヨシダ）"},
    {"areaName":"愛媛県","placeName":"上林（カミハヤシ）"},
    {"areaName":"愛媛県","placeName":"成就社（ジョウジュシャ）"},
    {"areaName":"愛媛県","placeName":"長浜（ナガハマ）"},
    {"areaName":"愛媛県","placeName":"中山（ナカヤマ）"},
    {"areaName":"愛媛県","placeName":"久万（クマ）"},
    {"areaName":"愛媛県","placeName":"大洲（オオズ）"},
    {"areaName":"愛媛県","placeName":"獅子越峠（シシゴエトウゲ）"},
    {"areaName":"愛媛県","placeName":"瀬戸（セト）"},
    {"areaName":"愛媛県","placeName":"八幡浜（ヤワタハマ）"},
    {"areaName":"愛媛県","placeName":"宇和（ウワ）"},
    {"areaName":"愛媛県","placeName":"宇和島（ウワジマ）"},
    {"areaName":"愛媛県","placeName":"近永（チカナガ）"},
    {"areaName":"愛媛県","placeName":"御荘（ミショウ）"},
    {"areaName":"高知県","placeName":"本川（ホンガワ）"},
    {"areaName":"高知県","placeName":"本山（モトヤマ）"},
    {"areaName":"高知県","placeName":"池川（イケガワ）"},
    {"areaName":"高知県","placeName":"繁藤（シゲトウ）"},
    {"areaName":"高知県","placeName":"大栃（オオドチ）"},
    {"areaName":"高知県","placeName":"魚梁瀬（ヤナセ）"},
    {"areaName":"高知県","placeName":"佐川（サカワ）"},
    {"areaName":"高知県","placeName":"高知（コウチ）"},
    {"areaName":"高知県","placeName":"後免（ゴメン）"},
    {"areaName":"高知県","placeName":"南国日章（ナンコクニッショウ）"},
    {"areaName":"高知県","placeName":"船戸（フナト）"},
    {"areaName":"高知県","placeName":"鳥形山（トリガタヤマ）"},
    {"areaName":"高知県","placeName":"安芸（アキ）"},
    {"areaName":"高知県","placeName":"田野（タノ）"},
    {"areaName":"高知県","placeName":"梼原（ユスハラ）"},
    {"areaName":"高知県","placeName":"須崎（スサキ）"},
    {"areaName":"高知県","placeName":"佐喜浜（サキハマ）"},
    {"areaName":"高知県","placeName":"窪川（クボカワ）"},
    {"areaName":"高知県","placeName":"室戸岬（ムロトミサキ）"},
    {"areaName":"高知県","placeName":"江川崎（エカワサキ）"},
    {"areaName":"高知県","placeName":"大正（タイショウ）"},
    {"areaName":"高知県","placeName":"佐賀（サガ）"},
    {"areaName":"高知県","placeName":"宿毛（スクモ）"},
    {"areaName":"高知県","placeName":"中村（ナカムラ）"},
    {"areaName":"高知県","placeName":"三崎（ミサキ）"},
    {"areaName":"高知県","placeName":"清水（シミズ）"},
    {"areaName":"山口県","placeName":"須佐（スサ）"},
    {"areaName":"山口県","placeName":"萩（ハギ）"},
    {"areaName":"山口県","placeName":"油谷（ユヤ）"},
    {"areaName":"山口県","placeName":"篠生（シノブ）"},
    {"areaName":"山口県","placeName":"徳佐（トクサ）"},
    {"areaName":"山口県","placeName":"羅漢山（ラカンザン）"},
    {"areaName":"山口県","placeName":"秋吉台（アキヨシダイ）"},
    {"areaName":"山口県","placeName":"鹿野（カノ）"},
    {"areaName":"山口県","placeName":"広瀬（ヒロセ）"},
    {"areaName":"山口県","placeName":"豊田（トヨタ）"},
    {"areaName":"山口県","placeName":"東厚保（ヒガシアツ）"},
    {"areaName":"山口県","placeName":"山口（ヤマグチ）"},
    {"areaName":"山口県","placeName":"和田（ワダ）"},
    {"areaName":"山口県","placeName":"岩国（イワクニ）"},
    {"areaName":"山口県","placeName":"防府（ホウフ）"},
    {"areaName":"山口県","placeName":"下松（クダマツ）"},
    {"areaName":"山口県","placeName":"玖珂（クガ）"},
    {"areaName":"山口県","placeName":"下関（シモノセキ）"},
    {"areaName":"山口県","placeName":"宇部（ウベ）"},
    {"areaName":"山口県","placeName":"柳井（ヤナイ）"},
    {"areaName":"山口県","placeName":"安下庄（アゲノショウ）"},
    {"areaName":"福岡県","placeName":"小呂島（オロノシマ）"},
    {"areaName":"福岡県","placeName":"宗像（ムナカタ）"},
    {"areaName":"福岡県","placeName":"八幡（ヤハタ）"},
    {"areaName":"福岡県","placeName":"空港北町（クウコウキタマチ）"},
    {"areaName":"福岡県","placeName":"東谷（ヒガシタニ）"},
    {"areaName":"福岡県","placeName":"行橋（ユクハシ）"},
    {"areaName":"福岡県","placeName":"飯塚（イイヅカ）"},
    {"areaName":"福岡県","placeName":"前原（マエバル）"},
    {"areaName":"福岡県","placeName":"福岡（フクオカ）"},
    {"areaName":"福岡県","placeName":"博多（ハカタ）"},
    {"areaName":"福岡県","placeName":"太宰府（ダザイフ）"},
    {"areaName":"福岡県","placeName":"添田（ソエダ）"},
    {"areaName":"福岡県","placeName":"早良脇山（サワラワキヤマ）"},
    {"areaName":"福岡県","placeName":"朝倉（アサクラ）"},
    {"areaName":"福岡県","placeName":"英彦山（ヒコサン）"},
    {"areaName":"福岡県","placeName":"久留米（クルメ）"},
    {"areaName":"福岡県","placeName":"耳納山（ミノウサン）"},
    {"areaName":"福岡県","placeName":"黒木（クロギ）"},
    {"areaName":"福岡県","placeName":"柳川（ヤナガワ）"},
    {"areaName":"福岡県","placeName":"大牟田（オオムタ）"},
    {"areaName":"大分県","placeName":"国見（クニミ）"},
    {"areaName":"大分県","placeName":"中津（ナカツ）"},
    {"areaName":"大分県","placeName":"豊後高田（ブンゴタカダ）"},
    {"areaName":"大分県","placeName":"耶馬渓（ヤバケイ）"},
    {"areaName":"大分県","placeName":"院内（インナイ）"},
    {"areaName":"大分県","placeName":"杵築（キツキ）"},
    {"areaName":"大分県","placeName":"武蔵（ムサシ）"},
    {"areaName":"大分県","placeName":"日田（ヒタ）"},
    {"areaName":"大分県","placeName":"玖珠（クス）"},
    {"areaName":"大分県","placeName":"湯布院（ユフイン）"},
    {"areaName":"大分県","placeName":"大分（オオイタ）"},
    {"areaName":"大分県","placeName":"佐賀関（サガノセキ）"},
    {"areaName":"大分県","placeName":"椿ヶ鼻（ツバキガハナ）"},
    {"areaName":"大分県","placeName":"臼杵（ウスキ）"},
    {"areaName":"大分県","placeName":"犬飼（イヌカイ）"},
    {"areaName":"大分県","placeName":"竹田（タケタ）"},
    {"areaName":"大分県","placeName":"佐伯（サイキ）"},
    {"areaName":"大分県","placeName":"宇目（ウメ）"},
    {"areaName":"大分県","placeName":"蒲江（カマエ）"},
    {"areaName":"長崎県","placeName":"鰐浦（ワニウラ）"},
    {"areaName":"長崎県","placeName":"厳原（イヅハラ）"},
    {"areaName":"長崎県","placeName":"美津島（ミツシマ）"},
    {"areaName":"長崎県","placeName":"芦辺（アシベ）"},
    {"areaName":"長崎県","placeName":"石田（イシダ）"},
    {"areaName":"長崎県","placeName":"平戸（ヒラド）"},
    {"areaName":"長崎県","placeName":"松浦（マツウラ）"},
    {"areaName":"長崎県","placeName":"佐世保（サセボ）"},
    {"areaName":"長崎県","placeName":"有川（アリカワ）"},
    {"areaName":"長崎県","placeName":"大瀬戸（オオセト）"},
    {"areaName":"長崎県","placeName":"長浦岳（ナガウラダケ）"},
    {"areaName":"長崎県","placeName":"大村（オオムラ）"},
    {"areaName":"長崎県","placeName":"諫早（イサハヤ）"},
    {"areaName":"長崎県","placeName":"長崎（ナガサキ）"},
    {"areaName":"長崎県","placeName":"雲仙岳（ウンゼンダケ）"},
    {"areaName":"長崎県","placeName":"島原（シマバラ）"},
    {"areaName":"長崎県","placeName":"福江（フクエ）"},
    {"areaName":"長崎県","placeName":"上大津（カミオオヅ）"},
    {"areaName":"長崎県","placeName":"口之津（クチノツ）"},
    {"areaName":"長崎県","placeName":"野母崎（ノモザキ）"},
    {"areaName":"佐賀県","placeName":"唐津（カラツ）"},
    {"areaName":"佐賀県","placeName":"北山（ホクザン）"},
    {"areaName":"佐賀県","placeName":"鳥栖（トス）"},
    {"areaName":"佐賀県","placeName":"伊万里（イマリ）"},
    {"areaName":"佐賀県","placeName":"大町（オオマチ）"},
    {"areaName":"佐賀県","placeName":"佐賀（サガ）"},
    {"areaName":"佐賀県","placeName":"嬉野（ウレシノ）"},
    {"areaName":"佐賀県","placeName":"白石（シロイシ）"},
    {"areaName":"佐賀県","placeName":"川副（カワソエ）"},
    {"areaName":"熊本県","placeName":"鹿北（カホク）"},
    {"areaName":"熊本県","placeName":"南小国（ミナミオグニ）"},
    {"areaName":"熊本県","placeName":"岱明（タイメイ）"},
    {"areaName":"熊本県","placeName":"菊池（キクチ）"},
    {"areaName":"熊本県","placeName":"阿蘇乙姫（アソオトヒメ）"},
    {"areaName":"熊本県","placeName":"熊本（クマモト）"},
    {"areaName":"熊本県","placeName":"益城（マシキ）"},
    {"areaName":"熊本県","placeName":"南阿蘇（ミナミアソ）"},
    {"areaName":"熊本県","placeName":"高森（タカモリ）"},
    {"areaName":"熊本県","placeName":"宇土（ウト）"},
    {"areaName":"熊本県","placeName":"山都（ヤマト）"},
    {"areaName":"熊本県","placeName":"三角（ミスミ）"},
    {"areaName":"熊本県","placeName":"甲佐（コウサ）"},
    {"areaName":"熊本県","placeName":"松島（マツシマ）"},
    {"areaName":"熊本県","placeName":"本渡（ホンド）"},
    {"areaName":"熊本県","placeName":"八代（ヤツシロ）"},
    {"areaName":"熊本県","placeName":"田浦（タノウラ）"},
    {"areaName":"熊本県","placeName":"山江（ヤマエ）"},
    {"areaName":"熊本県","placeName":"五木（イツキ）"},
    {"areaName":"熊本県","placeName":"水俣（ミナマタ）"},
    {"areaName":"熊本県","placeName":"一勝地（イッショウチ）"},
    {"areaName":"熊本県","placeName":"人吉（ヒトヨシ）"},
    {"areaName":"熊本県","placeName":"上（ウエ）"},
    {"areaName":"熊本県","placeName":"多良木（タラギ）"},
    {"areaName":"熊本県","placeName":"湯前横谷（ユノマエヨコタニ）"},
    {"areaName":"熊本県","placeName":"牛深（ウシブカ）"},
    {"areaName":"宮崎県","placeName":"高千穂（タカチホ）"},
    {"areaName":"宮崎県","placeName":"古江（フルエ）"},
    {"areaName":"宮崎県","placeName":"鞍岡（クラオカ）"},
    {"areaName":"宮崎県","placeName":"日之影（ヒノカゲ）"},
    {"areaName":"宮崎県","placeName":"諸塚（モロツカ）"},
    {"areaName":"宮崎県","placeName":"北方（キタカタ）"},
    {"areaName":"宮崎県","placeName":"延岡（ノベオカ）"},
    {"areaName":"宮崎県","placeName":"椎葉（シイバ）"},
    {"areaName":"宮崎県","placeName":"日向（ヒュウガ）"},
    {"areaName":"宮崎県","placeName":"神門（ミカド）"},
    {"areaName":"宮崎県","placeName":"西米良（ニシメラ）"},
    {"areaName":"宮崎県","placeName":"都農（ツノ）"},
    {"areaName":"宮崎県","placeName":"高鍋（タカナベ）"},
    {"areaName":"宮崎県","placeName":"加久藤（カクトウ）"},
    {"areaName":"宮崎県","placeName":"西都（サイト）"},
    {"areaName":"宮崎県","placeName":"えびの（エビノ）"},
    {"areaName":"宮崎県","placeName":"小林（コバヤシ）"},
    {"areaName":"宮崎県","placeName":"野尻（ノジリ）"},
    {"areaName":"宮崎県","placeName":"国富（クニトミ）"},
    {"areaName":"宮崎県","placeName":"宮崎（ミヤザキ）"},
    {"areaName":"宮崎県","placeName":"田野（タノ）"},
    {"areaName":"宮崎県","placeName":"赤江（アカエ）"},
    {"areaName":"宮崎県","placeName":"都城（ミヤコノジョウ）"},
    {"areaName":"宮崎県","placeName":"深瀬（フカセ）"},
    {"areaName":"宮崎県","placeName":"油津（アブラツ）"},
    {"areaName":"宮崎県","placeName":"串間（クシマ）"},
    {"areaName":"鹿児島県","placeName":"阿久根（アクネ）"},
    {"areaName":"鹿児島県","placeName":"出水（イズミ）"},
    {"areaName":"鹿児島県","placeName":"大口（オオクチ）"},
    {"areaName":"鹿児島県","placeName":"紫尾山（シビサン）"},
    {"areaName":"鹿児島県","placeName":"さつま柏原（サツマカシワバル）"},
    {"areaName":"鹿児島県","placeName":"中甑（ナカコシキ）"},
    {"areaName":"鹿児島県","placeName":"川内（センダイ）"},
    {"areaName":"鹿児島県","placeName":"溝辺（ミゾベ）"},
    {"areaName":"鹿児島県","placeName":"八重山（ヤエヤマ）"},
    {"areaName":"鹿児島県","placeName":"東市来（ヒガシイチキ）"},
    {"areaName":"鹿児島県","placeName":"牧之原（マキノハラ）"},
    {"areaName":"鹿児島県","placeName":"鹿児島（カゴシマ）"},
    {"areaName":"鹿児島県","placeName":"輝北（キホク）"},
    {"areaName":"鹿児島県","placeName":"大隅（オオスミ）"},
    {"areaName":"鹿児島県","placeName":"加世田（カセダ）"},
    {"areaName":"鹿児島県","placeName":"吉ケ別府（ヨシガベップ）"},
    {"areaName":"鹿児島県","placeName":"志布志（シブシ）"},
    {"areaName":"鹿児島県","placeName":"喜入（キイレ）"},
    {"areaName":"鹿児島県","placeName":"鹿屋（カノヤ）"},
    {"areaName":"鹿児島県","placeName":"肝付前田（キモツキマエダ）"},
    {"areaName":"鹿児島県","placeName":"枕崎（マクラザキ）"},
    {"areaName":"鹿児島県","placeName":"指宿（イブスキ）"},
    {"areaName":"鹿児島県","placeName":"内之浦（ウチノウラ）"},
    {"areaName":"鹿児島県","placeName":"田代（タシロ）"},
    {"areaName":"鹿児島県","placeName":"佐多（サタ）"},
    {"areaName":"鹿児島県","placeName":"種子島（タネガシマ）"},
    {"areaName":"鹿児島県","placeName":"中種子（ナカタネ）"},
    {"areaName":"鹿児島県","placeName":"上中（カミナカ）"},
    {"areaName":"鹿児島県","placeName":"屋久島（ヤクシマ）"},
    {"areaName":"鹿児島県","placeName":"尾之間（オノアイダ）"},
    {"areaName":"鹿児島県","placeName":"中之島（ナカノシマ）"},
    {"areaName":"鹿児島県","placeName":"平島（タイラジマ）"},
    {"areaName":"鹿児島県","placeName":"諏訪之瀬島（スワノセジマ）"},
    {"areaName":"鹿児島県","placeName":"小宝島（コダカラジマ）"},
    {"areaName":"鹿児島県","placeName":"宝島（タカラジマ）"},
    {"areaName":"鹿児島県","placeName":"笠利（カサリ）"},
    {"areaName":"鹿児島県","placeName":"名瀬（ナゼ）"},
    {"areaName":"鹿児島県","placeName":"喜界島（キカイジマ）"},
    {"areaName":"鹿児島県","placeName":"古仁屋（コニヤ）"},
    {"areaName":"鹿児島県","placeName":"天城（アマギ）"},
    {"areaName":"鹿児島県","placeName":"伊仙（イセン）"},
    {"areaName":"鹿児島県","placeName":"沖永良部（オキノエラブ）"},
    {"areaName":"鹿児島県","placeName":"与論島（ヨロンジマ）"},
    {"areaName":"沖縄県","placeName":"伊是名（イゼナ）"},
    {"areaName":"沖縄県","placeName":"奥（オク）"},
    {"areaName":"沖縄県","placeName":"国頭（クニガミ）"},
    {"areaName":"沖縄県","placeName":"本部（モトブ）"},
    {"areaName":"沖縄県","placeName":"東（ヒガシ）"},
    {"areaName":"沖縄県","placeName":"粟国（アグニ）"},
    {"areaName":"沖縄県","placeName":"名護（ナゴ）"},
    {"areaName":"沖縄県","placeName":"読谷（ヨミタン）"},
    {"areaName":"沖縄県","placeName":"北原（キタハラ）"},
    {"areaName":"沖縄県","placeName":"久米島（クメジマ）"},
    {"areaName":"沖縄県","placeName":"渡名喜（トナキ）"},
    {"areaName":"沖縄県","placeName":"胡屋（ゴヤ）"},
    {"areaName":"沖縄県","placeName":"宮城島（ミヤギジマ）"},
    {"areaName":"沖縄県","placeName":"渡嘉敷（トカシキ）"},
    {"areaName":"沖縄県","placeName":"那覇（ナハ）"},
    {"areaName":"沖縄県","placeName":"安次嶺（アシミネ）"},
    {"areaName":"沖縄県","placeName":"糸数（イトカズ）"},
    {"areaName":"沖縄県","placeName":"北大東（キタダイトウ）"},
    {"areaName":"沖縄県","placeName":"南大東（ミナミダイトウ）（南大東島（ミナミダイトウジマ））"},
    {"areaName":"沖縄県","placeName":"旧東（キュウトウ）"},
    {"areaName":"沖縄県","placeName":"下地島（シモジシマ）"},
    {"areaName":"沖縄県","placeName":"宮古島（ミヤコジマ）"},
    {"areaName":"沖縄県","placeName":"鏡原（カガミハラ）"},
    {"areaName":"沖縄県","placeName":"城辺（グスクベ）"},
    {"areaName":"沖縄県","placeName":"仲筋（ナカスジ）"},
    {"areaName":"沖縄県","placeName":"伊原間（イバルマ）"},
    {"areaName":"沖縄県","placeName":"所野（トコロノ）"},
    {"areaName":"沖縄県","placeName":"与那国島（ヨナグニジマ）"},
    {"areaName":"沖縄県","placeName":"川平（カビラ）"},
    {"areaName":"沖縄県","placeName":"西表島（イリオモテジマ）"},
    {"areaName":"沖縄県","placeName":"石垣島（イシガキジマ）"},
    {"areaName":"沖縄県","placeName":"盛山（モリヤマ）"},
    {"areaName":"沖縄県","placeName":"大原（オオハラ）"},
    {"areaName":"沖縄県","placeName":"波照間（ハテルマ）"}   
]